{"type":"FeatureCollection","features":[{"type":"Feature","properties":{"kind":"district","code":"01"},"geometry":{"type":"MultiPolygon","coordinates":[[[[2.183451,41.390612],[2.181323,41.392222],[2.179859,41.391052],[2.17749,41.390164],[2.175851,41.388949],[2.173409,41.388948],[2.172765,41.388474],[2.17151,41.387044],[2.171138,41.386842],[2.170284,41.385879],[2.169769,41.385574],[2.169358,41.38554],[2.164714,41.38593],[2.164011,41.385398],[2.163089,41.378747],[2.167788,41.375167],[2.167797,41.374976],[2.169999,41.374956],[2.175298,41.374621],[2.175529,41.374508],[2.175738,41.374292],[2.175605,41.374207],[2.175459,41.373931],[2.175506,41.373666],[2.175629,41.373521],[2.175473,41.373326],[2.176302,41.372951],[2.177095,41.372753],[2.177288,41.372513],[2.182021,41.37037],[2.182097,41.370395],[2.183009,41.371535],[2.182993,41.371606],[2.178124,41.373818],[2.178271,41.374007],[2.177976,41.374138],[2.182305,41.379552],[2.18251,41.37946],[2.183254,41.37755],[2.181506,41.375355],[2.181653,41.374888],[2.182924,41.374315],[2.183057,41.374339],[2.184993,41.376747],[2.18355,41.380454],[2.184671,41.380704],[2.185917,41.38011],[2.186047,41.379788],[2.185945,41.379764],[2.186029,41.379555],[2.186446,41.379649],[2.187264,41.377599],[2.186436,41.377411],[2.186442,41.377335],[2.187197,41.377227],[2.186895,41.37601],[2.186602,41.37605],[2.186835,41.375907],[2.18688,41.375953],[2.186831,41.375688],[2.186927,41.375625],[2.185307,41.374976],[2.18473,41.375028],[2.184721,41.374973],[2.185271,41.374922],[2.185208,41.374531],[2.184548,41.374638],[2.184535,41.374584],[2.185198,41.374476],[2.185137,41.374083],[2.184492,41.374222],[2.18447,41.374168],[2.185129,41.374027],[2.185066,41.373638],[2.184474,41.373814],[2.184447,41.373763],[2.185058,41.373581],[2.185004,41.373233],[2.184942,41.373213],[2.184423,41.37341],[2.184392,41.373359],[2.184987,41.373135],[2.18493,41.372789],[2.184874,41.372773],[2.184302,41.373033],[2.184264,41.372987],[2.184932,41.372674],[2.184234,41.372951],[2.184892,41.372646],[2.185612,41.372612],[2.185934,41.374532],[2.186661,41.374815],[2.187489,41.374557],[2.187119,41.373874],[2.186802,41.37356],[2.186844,41.37354],[2.187092,41.373788],[2.186819,41.373287],[2.187121,41.373194],[2.187546,41.373156],[2.187403,41.372278],[2.18592,41.372405],[2.185797,41.371693],[2.186164,41.371654],[2.186152,41.371588],[2.185792,41.371617],[2.185768,41.371209],[2.187214,41.371103],[2.187143,41.370644],[2.18471,41.3709],[2.184612,41.370845],[2.184579,41.370476],[2.184964,41.370416],[2.184624,41.368605],[2.184705,41.368535],[2.185192,41.368482],[2.185147,41.368104],[2.18524,41.368096],[2.185248,41.368145],[2.185688,41.368101],[2.18568,41.368044],[2.185954,41.368027],[2.185988,41.368317],[2.185861,41.368448],[2.186174,41.370126],[2.187202,41.370007],[2.18688,41.368301],[2.186973,41.368291],[2.186681,41.366912],[2.185364,41.365358],[2.185133,41.365687],[2.185087,41.365704],[2.184934,41.365631],[2.184936,41.365256],[2.185132,41.365296],[2.185313,41.364751],[2.18543,41.364715],[2.185608,41.364749],[2.185973,41.364225],[2.186482,41.364037],[2.186649,41.364045],[2.186794,41.364141],[2.186778,41.364179],[2.186155,41.364407],[2.185864,41.364825],[2.185871,41.364885],[2.18669,41.365504],[2.18684,41.365673],[2.187265,41.366251],[2.18746,41.366757],[2.187558,41.366784],[2.187896,41.367231],[2.187934,41.367256],[2.18806,41.367221],[2.189245,41.366744],[2.189302,41.366638],[2.187592,41.364018],[2.187414,41.363575],[2.187263,41.363421],[2.186872,41.363409],[2.186734,41.363364],[2.186689,41.363288],[2.18668,41.363217],[2.187133,41.363127],[2.187163,41.363079],[2.186647,41.361624],[2.185281,41.358113],[2.185122,41.358145],[2.185037,41.357978],[2.184662,41.35806],[2.184599,41.357903],[2.185361,41.357734],[2.186849,41.361589],[2.187087,41.36154],[2.187145,41.361708],[2.187085,41.361719],[2.187505,41.362794],[2.187729,41.363083],[2.187759,41.363471],[2.188026,41.363788],[2.188396,41.364457],[2.189812,41.366647],[2.190128,41.367046],[2.190453,41.367639],[2.191877,41.369857],[2.191794,41.369982],[2.19157,41.370037],[2.191461,41.36997],[2.191112,41.369395],[2.190871,41.369395],[2.190347,41.369515],[2.189846,41.369928],[2.189528,41.370495],[2.189491,41.370689],[2.18951,41.371562],[2.189686,41.37241],[2.190237,41.373867],[2.190863,41.375191],[2.191298,41.375836],[2.19195,41.376455],[2.192231,41.376637],[2.192769,41.376842],[2.193207,41.376919],[2.193442,41.376918],[2.193201,41.377078],[2.192868,41.377636],[2.192818,41.377943],[2.192872,41.378403],[2.192968,41.378737],[2.193417,41.379584],[2.193947,41.380212],[2.194505,41.380709],[2.194979,41.380969],[2.196531,41.38041],[2.196539,41.380305],[2.196636,41.380252],[2.196928,41.380297],[2.196927,41.38051],[2.196826,41.380573],[2.196648,41.380519],[2.195352,41.380987],[2.195681,41.381522],[2.196961,41.381066],[2.196947,41.380987],[2.197024,41.380955],[2.197166,41.380965],[2.197317,41.381109],[2.197218,41.381229],[2.196976,41.38121],[2.195462,41.381744],[2.195461,41.38207],[2.195569,41.382521],[2.195934,41.383194],[2.19656,41.383825],[2.197224,41.384213],[2.197847,41.384427],[2.198194,41.38448],[2.198249,41.384345],[2.198315,41.384341],[2.19823,41.384703],[2.198535,41.384899],[2.198604,41.384997],[2.199083,41.384638],[2.199722,41.384987],[2.19642,41.387466],[2.196173,41.387459],[2.195949,41.387538],[2.195838,41.387648],[2.195755,41.387852],[2.193573,41.38624],[2.18677,41.391393],[2.184586,41.389756],[2.183451,41.390612]]]]}},{"type":"Feature","properties":{"kind":"district","code":"02"},"geometry":{"type":"MultiPolygon","coordinates":[[[[2.186895,41.401654],[2.184527,41.403452],[2.185669,41.404306],[2.175468,41.412036],[2.168659,41.406929],[2.172043,41.404369],[2.167353,41.400855],[2.166218,41.40171],[2.159226,41.396461],[2.144978,41.392855],[2.14499,41.392651],[2.144835,41.392458],[2.144583,41.392368],[2.144344,41.392384],[2.143958,41.391471],[2.143649,41.390501],[2.14294,41.387678],[2.142751,41.386603],[2.142303,41.380718],[2.148236,41.376232],[2.148958,41.375768],[2.149899,41.375074],[2.154025,41.375003],[2.167797,41.374976],[2.167788,41.375167],[2.163089,41.378747],[2.164011,41.385398],[2.164714,41.38593],[2.169358,41.38554],[2.169769,41.385574],[2.170284,41.385879],[2.171138,41.386842],[2.17151,41.387044],[2.172765,41.388474],[2.173409,41.388948],[2.175851,41.388949],[2.17749,41.390164],[2.179859,41.391052],[2.181323,41.392222],[2.182381,41.39142],[2.186732,41.394639],[2.186664,41.394724],[2.186664,41.394831],[2.186738,41.394921],[2.186865,41.394968],[2.186895,41.401654]]]]}},{"type":"Feature","properties":{"kind":"district","code":"03"},"geometry":{"type":"MultiPolygon","coordinates":[[[[2.175209,41.349839],[2.175158,41.349907],[2.175243,41.34999],[2.175184,41.350041],[2.175255,41.350111],[2.175194,41.350232],[2.175411,41.35084],[2.175671,41.35111],[2.175761,41.351136],[2.176043,41.351588],[2.175994,41.351788],[2.176093,41.352307],[2.17642,41.352645],[2.176741,41.353275],[2.177216,41.353931],[2.177635,41.354711],[2.178003,41.355232],[2.178002,41.355324],[2.178288,41.355637],[2.178447,41.355954],[2.178833,41.35644],[2.178845,41.356538],[2.178931,41.356598],[2.179486,41.35745],[2.17974,41.357922],[2.179922,41.35811],[2.179952,41.358255],[2.180308,41.358756],[2.180417,41.359031],[2.181107,41.359992],[2.18165,41.361024],[2.183036,41.36316],[2.183112,41.363229],[2.183414,41.363271],[2.183475,41.36332],[2.183296,41.364252],[2.183078,41.364864],[2.183281,41.364909],[2.18301,41.365219],[2.182859,41.365155],[2.182901,41.364855],[2.182402,41.364749],[2.182322,41.364632],[2.172423,41.349289],[2.172102,41.349404],[2.171902,41.349009],[2.171869,41.348853],[2.17222,41.34881],[2.171291,41.344523],[2.171486,41.344501],[2.171564,41.344702],[2.171691,41.344723],[2.172249,41.344314],[2.172341,41.344193],[2.172274,41.343622],[2.171523,41.340316],[2.171612,41.340254],[2.172088,41.340232],[2.172129,41.340168],[2.171779,41.338663],[2.170994,41.338756],[2.170951,41.338559],[2.171107,41.338332],[2.171092,41.338187],[2.170918,41.337449],[2.170774,41.336471],[2.170537,41.335664],[2.170548,41.335526],[2.170715,41.33538],[2.170736,41.335127],[2.171067,41.335079],[2.170955,41.334099],[2.170144,41.334192],[2.170209,41.334511],[2.170272,41.33456],[2.170176,41.334622],[2.17006,41.334588],[2.169973,41.334236],[2.170007,41.334117],[2.170103,41.334064],[2.17114,41.333919],[2.169355,41.326371],[2.170277,41.323559],[2.170341,41.32349],[2.170365,41.323306],[2.1712,41.321021],[2.171173,41.320969],[2.17241,41.317449],[2.172399,41.317378],[2.172287,41.317334],[2.172305,41.317191],[2.17241,41.317084],[2.17261,41.317039],[2.172754,41.317062],[2.172854,41.317133],[2.17294,41.317257],[2.172937,41.317346],[2.169888,41.326395],[2.17002,41.327189],[2.170192,41.327677],[2.171724,41.334435],[2.171948,41.335172],[2.17191,41.335323],[2.172119,41.336132],[2.172146,41.336535],[2.172203,41.336587],[2.172216,41.336792],[2.172294,41.336937],[2.172259,41.337017],[2.17233,41.337079],[2.172296,41.337148],[2.172381,41.337398],[2.172362,41.337532],[2.172446,41.337615],[2.172433,41.337698],[2.17256,41.337927],[2.172521,41.338087],[2.172586,41.338251],[2.172576,41.338423],[2.172667,41.338564],[2.172649,41.338729],[2.172709,41.338791],[2.172791,41.339413],[2.172865,41.339505],[2.172876,41.339741],[2.172976,41.339925],[2.172956,41.340113],[2.173019,41.340151],[2.172967,41.340204],[2.17303,41.340265],[2.173081,41.340695],[2.173161,41.340828],[2.173151,41.34106],[2.173449,41.342091],[2.173474,41.342437],[2.173645,41.342822],[2.173601,41.342907],[2.173685,41.343088],[2.173636,41.34319],[2.173679,41.343242],[2.173656,41.343344],[2.173763,41.343612],[2.173728,41.343649],[2.17379,41.343955],[2.173877,41.344031],[2.173835,41.344093],[2.173908,41.34435],[2.17399,41.344398],[2.173929,41.34452],[2.173995,41.344566],[2.173954,41.34467],[2.174007,41.344716],[2.174008,41.344971],[2.174072,41.344991],[2.174163,41.345563],[2.174213,41.345593],[2.174169,41.345775],[2.174248,41.34592],[2.17438,41.346608],[2.174451,41.34667],[2.174449,41.346847],[2.174546,41.346874],[2.174486,41.346988],[2.174518,41.34709],[2.174623,41.34718],[2.174573,41.347336],[2.174701,41.347672],[2.174664,41.347829],[2.174739,41.347891],[2.174736,41.348129],[2.174821,41.348245],[2.174788,41.348305],[2.174905,41.348468],[2.174861,41.348789],[2.174944,41.348894],[2.174901,41.348947],[2.175021,41.349249],[2.175015,41.349449],[2.175092,41.349537],[2.175112,41.349808],[2.175209,41.349839]]],[[[2.148236,41.376232],[2.142303,41.380718],[2.142642,41.385617],[2.140707,41.384171],[2.139057,41.383216],[2.137613,41.382571],[2.134808,41.381532],[2.131667,41.380601],[2.130837,41.380271],[2.127582,41.378561],[2.122703,41.375674],[2.121787,41.375695],[2.121841,41.375576],[2.122081,41.375415],[2.123241,41.37485],[2.123761,41.374341],[2.124267,41.37354],[2.125454,41.372889],[2.127301,41.371626],[2.128136,41.371181],[2.128872,41.370918],[2.12923,41.370726],[2.130415,41.369735],[2.131041,41.368927],[2.131631,41.367972],[2.132031,41.366778],[2.132885,41.365538],[2.132868,41.365361],[2.133554,41.363947],[2.133656,41.363615],[2.13543,41.362257],[2.134992,41.361514],[2.134684,41.361149],[2.132967,41.359853],[2.13331,41.359381],[2.132852,41.359192],[2.133365,41.358484],[2.133216,41.358427],[2.133194,41.357417],[2.133103,41.356876],[2.13297,41.356497],[2.133188,41.356177],[2.13207,41.355744],[2.1339,41.35306],[2.133771,41.353005],[2.135042,41.351301],[2.137422,41.348774],[2.137074,41.348652],[2.136786,41.348365],[2.132119,41.346769],[2.128092,41.345298],[2.111202,41.3397],[2.100527,41.336042],[2.10225,41.335351],[2.103135,41.334904],[2.104789,41.333931],[2.10583,41.333162],[2.107654,41.331745],[2.108749,41.33073],[2.111379,41.327248],[2.112302,41.326117],[2.11311,41.325596],[2.114039,41.324881],[2.115653,41.32389],[2.117043,41.323321],[2.118901,41.322734],[2.121745,41.322066],[2.125798,41.321353],[2.128519,41.320961],[2.130712,41.320772],[2.139769,41.321115],[2.141268,41.32109],[2.143743,41.320944],[2.145742,41.320751],[2.146618,41.32078],[2.149728,41.320758],[2.149857,41.320683],[2.150816,41.321674],[2.151727,41.323154],[2.152265,41.322964],[2.152351,41.323076],[2.152897,41.3244],[2.153181,41.325486],[2.153637,41.326646],[2.153877,41.327472],[2.153825,41.327521],[2.15387,41.327594],[2.153923,41.327576],[2.153963,41.327665],[2.15408,41.327659],[2.154221,41.327557],[2.154249,41.327504],[2.15404,41.327269],[2.154213,41.327214],[2.154339,41.327271],[2.154495,41.327466],[2.154481,41.327615],[2.154395,41.327747],[2.154262,41.327835],[2.1543,41.32786],[2.158845,41.327835],[2.158971,41.327763],[2.158723,41.327281],[2.158817,41.32716],[2.158899,41.327139],[2.159091,41.327153],[2.159202,41.327221],[2.159533,41.327962],[2.159732,41.328238],[2.159997,41.328996],[2.161099,41.331587],[2.162309,41.33435],[2.163338,41.336502],[2.163631,41.337175],[2.163599,41.337233],[2.163639,41.337319],[2.163746,41.337368],[2.163684,41.337461],[2.163914,41.337972],[2.163946,41.338007],[2.164807,41.337875],[2.164888,41.33791],[2.1651,41.337876],[2.165023,41.337613],[2.165178,41.337588],[2.165389,41.338314],[2.165235,41.338339],[2.165155,41.338073],[2.164941,41.338112],[2.164868,41.338181],[2.164075,41.338322],[2.164937,41.340245],[2.165119,41.340205],[2.165147,41.340269],[2.165601,41.340157],[2.165729,41.340613],[2.165635,41.340629],[2.165528,41.340253],[2.165178,41.34034],[2.165288,41.340591],[2.165245,41.340602],[2.165226,41.340557],[2.165152,41.340582],[2.165114,41.340673],[2.16532,41.341136],[2.165423,41.341178],[2.166155,41.341073],[2.166248,41.341228],[2.166166,41.341325],[2.165984,41.341352],[2.165749,41.341322],[2.165089,41.341429],[2.164907,41.341521],[2.164212,41.341545],[2.163624,41.341668],[2.163661,41.34185],[2.163945,41.341843],[2.164069,41.342131],[2.164205,41.342108],[2.164241,41.342227],[2.162529,41.342501],[2.162495,41.342382],[2.162645,41.342359],[2.162593,41.342074],[2.162839,41.341997],[2.162761,41.3418],[2.161492,41.342044],[2.161049,41.342084],[2.161179,41.342592],[2.15948,41.343252],[2.159207,41.343246],[2.158408,41.342745],[2.15825,41.342586],[2.157871,41.342589],[2.157081,41.342234],[2.157048,41.342275],[2.157153,41.342324],[2.157088,41.342406],[2.156849,41.342294],[2.156961,41.342177],[2.156832,41.34212],[2.156786,41.342178],[2.156746,41.342155],[2.156799,41.342107],[2.156233,41.34182],[2.155627,41.340858],[2.15555,41.340814],[2.155457,41.340563],[2.155373,41.340415],[2.155327,41.340426],[2.155358,41.340406],[2.154818,41.339506],[2.154491,41.339076],[2.154381,41.339034],[2.154332,41.338926],[2.154399,41.338831],[2.154081,41.338297],[2.153786,41.337821],[2.153679,41.337835],[2.153607,41.337791],[2.15358,41.337719],[2.153666,41.337627],[2.152933,41.336432],[2.152755,41.336401],[2.152726,41.336316],[2.152802,41.336229],[2.152713,41.336074],[2.152482,41.335778],[2.152088,41.335054],[2.151958,41.335054],[2.151879,41.334963],[2.151955,41.334897],[2.151934,41.334802],[2.151281,41.333751],[2.151151,41.333746],[2.151066,41.333659],[2.151157,41.33358],[2.151115,41.333487],[2.150502,41.33253],[2.150305,41.332415],[2.15034,41.332234],[2.149743,41.331331],[2.149553,41.331208],[2.149488,41.331077],[2.149528,41.330931],[2.148913,41.329998],[2.148681,41.330018],[2.145902,41.330988],[2.146085,41.331286],[2.145849,41.331371],[2.14728,41.333697],[2.144279,41.334747],[2.145314,41.336427],[2.145628,41.336324],[2.145613,41.336551],[2.149568,41.336676],[2.150924,41.346483],[2.15187,41.346408],[2.151771,41.345799],[2.15181,41.34572],[2.151882,41.345775],[2.151957,41.346401],[2.152741,41.34634],[2.152642,41.345628],[2.153007,41.3456],[2.152854,41.344493],[2.153218,41.344463],[2.153006,41.342943],[2.153113,41.342735],[2.153308,41.342701],[2.163239,41.348369],[2.163143,41.348464],[2.16307,41.348422],[2.163041,41.348451],[2.163378,41.348641],[2.163696,41.348521],[2.163563,41.348396],[2.166907,41.347144],[2.173051,41.356503],[2.169901,41.358647],[2.170931,41.360251],[2.175329,41.358625],[2.175448,41.358631],[2.176739,41.360553],[2.173691,41.361646],[2.173844,41.36188],[2.17348,41.362035],[2.175983,41.365324],[2.17928,41.36412],[2.178993,41.363678],[2.179314,41.36356],[2.180753,41.365837],[2.180697,41.365896],[2.179827,41.366221],[2.179675,41.365979],[2.17652,41.367132],[2.176689,41.367398],[2.176393,41.367423],[2.176682,41.369386],[2.177039,41.369357],[2.177109,41.369821],[2.176752,41.36985],[2.17709,41.372144],[2.177376,41.372119],[2.177622,41.372361],[2.177288,41.372513],[2.177095,41.372753],[2.176302,41.372951],[2.175473,41.373326],[2.175629,41.373521],[2.175506,41.373666],[2.175459,41.373931],[2.175605,41.374207],[2.175738,41.374292],[2.175529,41.374508],[2.175298,41.374621],[2.169999,41.374956],[2.154025,41.375003],[2.149899,41.375074],[2.148958,41.375768],[2.148236,41.376232]]]]}},{"type":"Feature","properties":{"kind":"district","code":"04"},"geometry":{"type":"MultiPolygon","coordinates":[[[[2.103418,41.401102],[2.102926,41.401097],[2.102894,41.400667],[2.102833,41.40052],[2.102217,41.399826],[2.102036,41.399504],[2.101681,41.39915],[2.100496,41.398551],[2.100445,41.398003],[2.100147,41.397564],[2.10001,41.396974],[2.099925,41.396812],[2.099387,41.396272],[2.099119,41.39577],[2.099021,41.395412],[2.098509,41.394983],[2.098087,41.394253],[2.097792,41.393957],[2.098038,41.393603],[2.098051,41.393429],[2.099128,41.392811],[2.099796,41.392005],[2.099775,41.391456],[2.099856,41.39079],[2.100018,41.39014],[2.100249,41.389687],[2.100197,41.389379],[2.100257,41.389099],[2.10059,41.38841],[2.100705,41.388264],[2.101167,41.388006],[2.101881,41.387655],[2.102291,41.387518],[2.102013,41.387346],[2.101448,41.38721],[2.101114,41.387081],[2.101539,41.386727],[2.10158,41.386643],[2.101913,41.386401],[2.102029,41.386246],[2.102263,41.386118],[2.10261,41.38575],[2.102686,41.385552],[2.102893,41.385487],[2.103394,41.384553],[2.103354,41.384517],[2.103435,41.384368],[2.102932,41.383784],[2.102733,41.383627],[2.102254,41.383422],[2.101182,41.383176],[2.101932,41.381343],[2.102656,41.380596],[2.103179,41.38028],[2.103541,41.380205],[2.103862,41.380065],[2.105499,41.378877],[2.105983,41.379234],[2.108141,41.378136],[2.10882,41.37739],[2.109065,41.377038],[2.109289,41.376429],[2.109306,41.375945],[2.117801,41.375776],[2.121058,41.377708],[2.121441,41.377986],[2.121645,41.377342],[2.121619,41.376112],[2.121787,41.375695],[2.122703,41.375674],[2.127582,41.378561],[2.130837,41.380271],[2.131667,41.380601],[2.134808,41.381532],[2.137613,41.382571],[2.139057,41.383216],[2.140707,41.384171],[2.142642,41.385617],[2.14294,41.387678],[2.143529,41.390043],[2.143802,41.391027],[2.144344,41.392384],[2.144184,41.392453],[2.144054,41.392575],[2.138767,41.391238],[2.130669,41.392468],[2.130169,41.39266],[2.129978,41.392684],[2.129695,41.392594],[2.129333,41.392383],[2.12227,41.390622],[2.120899,41.390091],[2.120731,41.390533],[2.120552,41.390804],[2.120013,41.391276],[2.11937,41.391571],[2.118007,41.391924],[2.117561,41.392224],[2.117984,41.392594],[2.118184,41.392877],[2.118358,41.393197],[2.118477,41.39376],[2.118373,41.394406],[2.118294,41.394588],[2.118012,41.394958],[2.11763,41.395241],[2.117362,41.395364],[2.115962,41.395723],[2.115611,41.395875],[2.113126,41.397259],[2.112676,41.397],[2.111937,41.396364],[2.110913,41.395828],[2.109943,41.395174],[2.109617,41.395507],[2.109498,41.395913],[2.109746,41.396304],[2.109698,41.396577],[2.109594,41.396774],[2.109348,41.397035],[2.109306,41.397224],[2.109051,41.397417],[2.108953,41.397554],[2.108971,41.397661],[2.108712,41.398195],[2.10875,41.398311],[2.108651,41.39845],[2.108287,41.398644],[2.108192,41.398822],[2.107738,41.399233],[2.107353,41.399368],[2.107072,41.399801],[2.106633,41.400059],[2.105558,41.400495],[2.10539,41.400601],[2.104913,41.400682],[2.103418,41.401102]]]]}},{"type":"Feature","properties":{"kind":"district","code":"05"},"geometry":{"type":"MultiPolygon","coordinates":[[[[2.05897,41.43542],[2.058814,41.435557],[2.057669,41.435806],[2.057727,41.435504],[2.057482,41.434608],[2.057905,41.433838],[2.057639,41.433586],[2.057597,41.433446],[2.057737,41.433293],[2.057854,41.432603],[2.058417,41.431295],[2.058442,41.43043],[2.058393,41.429764],[2.058448,41.429595],[2.058447,41.429185],[2.057992,41.428272],[2.05769,41.427899],[2.057582,41.427512],[2.057554,41.427126],[2.057679,41.426796],[2.057665,41.42642],[2.057473,41.426215],[2.056791,41.425814],[2.055868,41.425484],[2.055299,41.425421],[2.053257,41.425007],[2.052886,41.424822],[2.052429,41.424436],[2.052333,41.42423],[2.05248,41.424159],[2.052433,41.423923],[2.052516,41.423817],[2.053161,41.423664],[2.053719,41.42314],[2.05392,41.422867],[2.05416,41.422733],[2.054442,41.422724],[2.054644,41.422415],[2.055545,41.422272],[2.055775,41.422032],[2.056219,41.421703],[2.056465,41.421358],[2.056486,41.421203],[2.056378,41.420781],[2.056377,41.420478],[2.056571,41.420251],[2.056633,41.419749],[2.056841,41.419275],[2.056865,41.419096],[2.057082,41.418908],[2.057108,41.418865],[2.057045,41.418802],[2.057301,41.418409],[2.057068,41.417798],[2.056897,41.416852],[2.056894,41.416662],[2.056963,41.416555],[2.056899,41.415999],[2.056226,41.415635],[2.056086,41.415315],[2.055944,41.41516],[2.055717,41.415015],[2.055232,41.414468],[2.054817,41.414157],[2.054641,41.413949],[2.054845,41.41341],[2.054942,41.412969],[2.054989,41.412182],[2.056852,41.41033],[2.057438,41.410334],[2.058765,41.410646],[2.058996,41.410985],[2.058993,41.411535],[2.059074,41.412259],[2.05887,41.412459],[2.058559,41.412643],[2.058595,41.412748],[2.05958,41.412799],[2.060187,41.412683],[2.060778,41.412727],[2.061493,41.412946],[2.061565,41.413111],[2.061951,41.413431],[2.062048,41.413665],[2.063496,41.41355],[2.063988,41.41416],[2.064158,41.414287],[2.064377,41.415029],[2.064711,41.415593],[2.064903,41.416093],[2.06499,41.416632],[2.064287,41.417841],[2.06458,41.418026],[2.065666,41.418128],[2.066784,41.418059],[2.067242,41.418082],[2.067572,41.418294],[2.068115,41.418461],[2.070033,41.418692],[2.070485,41.418812],[2.070239,41.420155],[2.070171,41.420977],[2.069795,41.421766],[2.069874,41.422703],[2.069543,41.423052],[2.069398,41.423354],[2.069674,41.425176],[2.069336,41.425265],[2.067656,41.425992],[2.067045,41.426267],[2.067016,41.426358],[2.067116,41.426815],[2.066814,41.42727],[2.066818,41.427388],[2.067001,41.427741],[2.067445,41.428159],[2.067495,41.428642],[2.067866,41.428797],[2.067883,41.429008],[2.067734,41.429376],[2.067814,41.429545],[2.067396,41.429535],[2.066412,41.429809],[2.065969,41.43008],[2.065537,41.429904],[2.064582,41.429915],[2.06411,41.43046],[2.063662,41.431128],[2.063463,41.43207],[2.063311,41.432322],[2.063317,41.432904],[2.063099,41.432948],[2.062908,41.433583],[2.06212,41.433358],[2.06002,41.433955],[2.059499,41.434478],[2.059362,41.434786],[2.059317,41.435066],[2.059358,41.435388],[2.05897,41.43542]]],[[[2.072555,41.435469],[2.072522,41.435505],[2.072788,41.435752],[2.072922,41.435991],[2.07334,41.436448],[2.073028,41.436607],[2.072613,41.436555],[2.071768,41.436302],[2.07106,41.435052],[2.070938,41.434399],[2.071475,41.433078],[2.072237,41.43204],[2.073122,41.430665],[2.074114,41.430207],[2.074532,41.429895],[2.075478,41.429552],[2.075831,41.429232],[2.076216,41.429069],[2.076475,41.428903],[2.076617,41.428709],[2.074586,41.428108],[2.073818,41.427932],[2.073221,41.427681],[2.072992,41.427523],[2.073205,41.42746],[2.073228,41.427416],[2.073063,41.426749],[2.072976,41.426591],[2.07295,41.426289],[2.07264,41.425979],[2.072544,41.425783],[2.072618,41.42562],[2.072774,41.425494],[2.072705,41.425153],[2.073006,41.424989],[2.073188,41.424944],[2.073424,41.424946],[2.074148,41.424807],[2.07454,41.42478],[2.075159,41.424996],[2.075705,41.424925],[2.07647,41.425042],[2.077139,41.425048],[2.077605,41.424943],[2.078118,41.424942],[2.079234,41.424545],[2.079679,41.424469],[2.080231,41.424486],[2.080363,41.424571],[2.080544,41.424579],[2.080588,41.424412],[2.080962,41.424004],[2.080589,41.424059],[2.080361,41.423987],[2.080224,41.423728],[2.080242,41.423362],[2.080069,41.423065],[2.079063,41.422748],[2.077908,41.422478],[2.077598,41.422489],[2.076061,41.422308],[2.075439,41.422068],[2.07534,41.421977],[2.075482,41.421844],[2.076519,41.421258],[2.076818,41.421139],[2.076953,41.421023],[2.077032,41.420806],[2.076939,41.420412],[2.076959,41.41996],[2.076851,41.419791],[2.076831,41.419533],[2.076903,41.419426],[2.077345,41.41919],[2.077515,41.419026],[2.077656,41.418697],[2.07765,41.418598],[2.077992,41.418644],[2.078474,41.418826],[2.078758,41.418864],[2.078604,41.418573],[2.078641,41.418484],[2.078769,41.418396],[2.078648,41.418004],[2.078672,41.417929],[2.078792,41.417878],[2.079032,41.417601],[2.079283,41.416747],[2.079476,41.416516],[2.079809,41.416246],[2.079744,41.415659],[2.079457,41.415568],[2.079242,41.415281],[2.079044,41.415133],[2.079033,41.415044],[2.079123,41.414978],[2.079067,41.414936],[2.078585,41.414979],[2.077339,41.414628],[2.07731,41.414441],[2.077115,41.41435],[2.076832,41.414028],[2.076557,41.413873],[2.076304,41.41355],[2.075974,41.412787],[2.076047,41.412728],[2.075545,41.412391],[2.075263,41.412305],[2.074541,41.412202],[2.074251,41.41193],[2.074134,41.411885],[2.07344,41.411861],[2.073313,41.411784],[2.073061,41.411426],[2.072635,41.411241],[2.072599,41.41118],[2.07228,41.411111],[2.072137,41.410955],[2.072103,41.410625],[2.071963,41.41043],[2.071575,41.409416],[2.071439,41.409187],[2.071351,41.408807],[2.071439,41.40858],[2.071962,41.407893],[2.072062,41.407545],[2.071924,41.407401],[2.071524,41.407187],[2.070317,41.40723],[2.07,41.407028],[2.070502,41.406041],[2.071466,41.40473],[2.072058,41.404094],[2.072192,41.403464],[2.072792,41.403158],[2.073752,41.403296],[2.074894,41.402909],[2.075607,41.403178],[2.076407,41.403193],[2.07735,41.403003],[2.077775,41.402867],[2.078593,41.403121],[2.078901,41.403398],[2.079133,41.403736],[2.07974,41.404174],[2.08012,41.404547],[2.080313,41.40515],[2.080281,41.405662],[2.080422,41.405963],[2.080674,41.406055],[2.080975,41.40639],[2.081833,41.406724],[2.082452,41.407081],[2.082792,41.407763],[2.083181,41.407993],[2.083543,41.408279],[2.083638,41.408543],[2.084135,41.408938],[2.084186,41.409093],[2.084133,41.409355],[2.085456,41.409714],[2.086001,41.409712],[2.086824,41.409493],[2.087487,41.408976],[2.088669,41.40861],[2.090324,41.408315],[2.090899,41.408317],[2.091535,41.408207],[2.091725,41.408193],[2.092222,41.408275],[2.092664,41.40827],[2.09436,41.407931],[2.095155,41.407924],[2.095652,41.40785],[2.096224,41.407967],[2.096655,41.408241],[2.096786,41.408572],[2.096946,41.408805],[2.097324,41.409107],[2.097961,41.409098],[2.099003,41.408862],[2.100277,41.408414],[2.100607,41.408368],[2.101021,41.407656],[2.101602,41.406996],[2.101708,41.406451],[2.101812,41.405119],[2.102865,41.404816],[2.10359,41.404403],[2.103708,41.404235],[2.103817,41.403836],[2.103825,41.403289],[2.103546,41.402601],[2.103153,41.40205],[2.103176,41.401651],[2.102926,41.401097],[2.103516,41.401086],[2.104913,41.400682],[2.105385,41.400603],[2.105558,41.400495],[2.106543,41.400103],[2.107072,41.399801],[2.107353,41.399368],[2.107738,41.399233],[2.108192,41.398822],[2.108287,41.398644],[2.108651,41.39845],[2.10875,41.398311],[2.108712,41.398195],[2.108971,41.397661],[2.108953,41.397554],[2.109051,41.397417],[2.109306,41.397224],[2.109348,41.397035],[2.109594,41.396774],[2.109698,41.396577],[2.109746,41.396304],[2.109498,41.395913],[2.109617,41.395507],[2.109943,41.395174],[2.110913,41.395828],[2.111937,41.396364],[2.112676,41.397],[2.113126,41.397259],[2.115611,41.395875],[2.115962,41.395723],[2.117362,41.395364],[2.11763,41.395241],[2.118012,41.394958],[2.118294,41.394588],[2.118373,41.394406],[2.118477,41.39376],[2.118358,41.393197],[2.118184,41.392877],[2.117984,41.392594],[2.117561,41.392224],[2.118007,41.391924],[2.11937,41.391571],[2.120013,41.391276],[2.120552,41.390804],[2.120731,41.390533],[2.120899,41.390091],[2.12227,41.390622],[2.129333,41.392383],[2.129695,41.392594],[2.129978,41.392684],[2.130169,41.39266],[2.130669,41.392468],[2.138767,41.391238],[2.144054,41.392575],[2.144184,41.392453],[2.144344,41.392384],[2.144657,41.392382],[2.144939,41.392554],[2.145002,41.392706],[2.144978,41.392855],[2.155711,41.395571],[2.155259,41.396353],[2.154931,41.396777],[2.151226,41.400492],[2.151159,41.400726],[2.15123,41.401151],[2.151155,41.401492],[2.150101,41.402883],[2.149923,41.403208],[2.150028,41.403781],[2.150326,41.40414],[2.150374,41.404367],[2.149971,41.405509],[2.150067,41.405995],[2.149571,41.40648],[2.149027,41.40689],[2.148791,41.406726],[2.148965,41.406584],[2.148914,41.406549],[2.148796,41.40665],[2.148723,41.406602],[2.148524,41.406777],[2.148447,41.406764],[2.148385,41.406812],[2.148497,41.406892],[2.148376,41.406989],[2.148659,41.407188],[2.147668,41.408001],[2.146075,41.409967],[2.145601,41.410825],[2.145361,41.411053],[2.145163,41.411193],[2.144775,41.411341],[2.14315,41.411486],[2.140818,41.411771],[2.137957,41.413974],[2.137025,41.414459],[2.136152,41.415223],[2.136063,41.415589],[2.136199,41.415874],[2.136315,41.415988],[2.134321,41.417708],[2.133675,41.418011],[2.132785,41.4183],[2.132278,41.418578],[2.132077,41.418557],[2.131604,41.418324],[2.131245,41.418235],[2.13107,41.418227],[2.130669,41.418312],[2.130545,41.418285],[2.13022,41.418665],[2.130059,41.419112],[2.130135,41.419567],[2.130086,41.419647],[2.129949,41.419635],[2.1297,41.419461],[2.129503,41.419437],[2.129071,41.419597],[2.128914,41.419867],[2.128758,41.419932],[2.128405,41.419707],[2.128062,41.419728],[2.127582,41.419497],[2.127453,41.419375],[2.127462,41.41925],[2.128024,41.418948],[2.128167,41.418763],[2.128168,41.41866],[2.127908,41.418417],[2.12791,41.418288],[2.128616,41.41781],[2.128924,41.417486],[2.128928,41.417422],[2.125316,41.419007],[2.124729,41.419211],[2.121163,41.42071],[2.121505,41.420869],[2.121512,41.421124],[2.121402,41.421349],[2.120883,41.421877],[2.120427,41.422722],[2.120545,41.423114],[2.12045,41.423747],[2.120515,41.424108],[2.121344,41.425467],[2.121347,41.42562],[2.121215,41.425783],[2.121267,41.425832],[2.121183,41.425887],[2.12096,41.425943],[2.120753,41.425935],[2.119559,41.42574],[2.119282,41.425868],[2.118935,41.425813],[2.117746,41.426218],[2.117105,41.426269],[2.116322,41.426662],[2.115661,41.426777],[2.115461,41.426877],[2.115409,41.426949],[2.115417,41.427494],[2.115364,41.427594],[2.115083,41.427817],[2.113324,41.428504],[2.11294,41.42836],[2.112337,41.428613],[2.112162,41.428555],[2.111864,41.42835],[2.111015,41.428284],[2.110149,41.428476],[2.109713,41.428417],[2.109201,41.428728],[2.109006,41.428751],[2.10772,41.428635],[2.106679,41.428633],[2.106341,41.428503],[2.105854,41.428564],[2.105745,41.428784],[2.105306,41.428839],[2.104363,41.428529],[2.103595,41.42811],[2.10322,41.428074],[2.102706,41.428432],[2.10211,41.428686],[2.101842,41.429088],[2.101295,41.429613],[2.101263,41.429725],[2.101146,41.429788],[2.0999,41.430111],[2.099146,41.430122],[2.098725,41.43089],[2.098941,41.431699],[2.098511,41.431928],[2.097656,41.432222],[2.097085,41.432501],[2.096964,41.432641],[2.096724,41.432737],[2.096069,41.433272],[2.095733,41.433091],[2.095489,41.432854],[2.094713,41.432759],[2.094072,41.43211],[2.093929,41.431713],[2.093751,41.431537],[2.0936,41.431269],[2.093341,41.430983],[2.092945,41.430729],[2.092708,41.430312],[2.092497,41.430165],[2.092428,41.429816],[2.092288,41.429613],[2.092137,41.429547],[2.091752,41.429487],[2.091428,41.429243],[2.091117,41.429177],[2.090835,41.428813],[2.090426,41.428644],[2.090033,41.428939],[2.089206,41.429214],[2.089059,41.429205],[2.088977,41.429144],[2.08879,41.428622],[2.088328,41.428646],[2.086157,41.428915],[2.085576,41.42907],[2.085369,41.429316],[2.08389,41.429973],[2.083704,41.430165],[2.083728,41.43029],[2.083853,41.430418],[2.083669,41.430647],[2.083418,41.430853],[2.082758,41.430758],[2.082611,41.430785],[2.082451,41.431138],[2.082582,41.431481],[2.082318,41.431629],[2.082037,41.43167],[2.081437,41.431576],[2.081108,41.431201],[2.081209,41.430992],[2.081246,41.430731],[2.081056,41.430646],[2.08077,41.430639],[2.080353,41.430752],[2.080152,41.43088],[2.08026,41.431559],[2.080198,41.43174],[2.07997,41.43189],[2.079018,41.431989],[2.078599,41.431958],[2.078165,41.432035],[2.077823,41.432142],[2.077361,41.432394],[2.076894,41.43277],[2.076714,41.43285],[2.075294,41.432962],[2.075174,41.43304],[2.075096,41.433195],[2.074845,41.433444],[2.075066,41.433871],[2.075045,41.434052],[2.075131,41.434504],[2.074772,41.435302],[2.073949,41.435348],[2.073784,41.435289],[2.073187,41.435212],[2.073021,41.435271],[2.072832,41.435459],[2.072555,41.435469]]]]}},{"type":"Feature","properties":{"kind":"district","code":"06"},"geometry":{"type":"MultiPolygon","coordinates":[[[[2.136285,41.423627],[2.136157,41.42377],[2.136148,41.424256],[2.13598,41.424545],[2.135805,41.424648],[2.135106,41.42488],[2.135048,41.424704],[2.135361,41.424377],[2.135343,41.424247],[2.13516,41.423973],[2.134846,41.423723],[2.134783,41.423576],[2.134648,41.42361],[2.134567,41.423511],[2.134293,41.42304],[2.134214,41.42278],[2.134261,41.422598],[2.134648,41.422324],[2.134777,41.422164],[2.134706,41.42213],[2.134358,41.422224],[2.133554,41.422335],[2.133035,41.422545],[2.132814,41.422587],[2.131903,41.422527],[2.13058,41.42275],[2.130349,41.422712],[2.12995,41.422566],[2.130477,41.421961],[2.130911,41.421555],[2.131265,41.421332],[2.13123,41.421262],[2.131301,41.421053],[2.13215,41.420082],[2.132203,41.419934],[2.132068,41.419801],[2.131546,41.419616],[2.131167,41.419411],[2.131006,41.419393],[2.130822,41.419505],[2.130583,41.419916],[2.13007,41.420076],[2.129908,41.419992],[2.129783,41.419706],[2.129668,41.419586],[2.129524,41.419513],[2.129317,41.41952],[2.129596,41.419434],[2.129754,41.419486],[2.129995,41.419657],[2.130129,41.419605],[2.130059,41.419112],[2.13022,41.418665],[2.130545,41.418285],[2.130669,41.418312],[2.13107,41.418227],[2.131245,41.418235],[2.131604,41.418324],[2.132077,41.418557],[2.132278,41.418578],[2.132785,41.4183],[2.133675,41.418011],[2.134321,41.417708],[2.136315,41.415988],[2.136199,41.415874],[2.136063,41.415589],[2.136152,41.415223],[2.137025,41.414459],[2.137957,41.413974],[2.140818,41.411771],[2.14315,41.411486],[2.144775,41.411341],[2.145163,41.411193],[2.145361,41.411053],[2.145601,41.410825],[2.146075,41.409967],[2.147668,41.408001],[2.148659,41.407188],[2.148376,41.406989],[2.148497,41.406892],[2.148385,41.406812],[2.148447,41.406764],[2.148524,41.406777],[2.148723,41.406602],[2.148796,41.40665],[2.148914,41.406549],[2.148965,41.406584],[2.148791,41.406726],[2.149027,41.40689],[2.149571,41.40648],[2.150067,41.405995],[2.149971,41.405509],[2.150374,41.404367],[2.150326,41.40414],[2.150028,41.403781],[2.149923,41.403208],[2.150101,41.402883],[2.151155,41.401492],[2.15123,41.401151],[2.151159,41.400726],[2.151226,41.400492],[2.154931,41.396777],[2.155259,41.396353],[2.155711,41.395571],[2.159226,41.396461],[2.166218,41.40171],[2.167353,41.400855],[2.172043,41.404369],[2.16369,41.410724],[2.161236,41.413568],[2.161422,41.413757],[2.161382,41.413936],[2.161056,41.414176],[2.160498,41.413924],[2.160133,41.413963],[2.159468,41.414271],[2.158948,41.414635],[2.158587,41.414962],[2.158086,41.415577],[2.157572,41.416518],[2.157424,41.41657],[2.157212,41.416513],[2.156628,41.415616],[2.155995,41.415189],[2.155761,41.415107],[2.155465,41.41512],[2.155372,41.414969],[2.155223,41.414924],[2.155028,41.414981],[2.154656,41.415224],[2.15272,41.416809],[2.151924,41.416905],[2.151838,41.417071],[2.151677,41.417206],[2.151423,41.417288],[2.151417,41.417377],[2.15099,41.417588],[2.150887,41.417719],[2.150897,41.41796],[2.15115,41.418498],[2.151517,41.418935],[2.15165,41.419337],[2.151681,41.419816],[2.151774,41.420143],[2.149272,41.420371],[2.149488,41.420606],[2.149475,41.421641],[2.147802,41.421592],[2.146976,41.421264],[2.145143,41.420893],[2.144715,41.420733],[2.144528,41.42053],[2.143898,41.42014],[2.142206,41.421453],[2.141995,41.421548],[2.141837,41.421557],[2.140813,41.421256],[2.140455,41.421098],[2.14004,41.420232],[2.137881,41.420891],[2.137722,41.420994],[2.137671,41.421153],[2.137739,41.421288],[2.138268,41.421533],[2.13844,41.421767],[2.138409,41.421996],[2.13808,41.422825],[2.137903,41.423068],[2.13759,41.423321],[2.137261,41.423461],[2.136538,41.423553],[2.136285,41.423627]]]]}},{"type":"Feature","properties":{"kind":"district","code":"07"},"geometry":{"type":"MultiPolygon","coordinates":[[[[2.120438,41.422802],[2.120427,41.422722],[2.120883,41.421877],[2.121402,41.421349],[2.121512,41.421124],[2.121505,41.420869],[2.121163,41.42071],[2.124729,41.419211],[2.125316,41.419007],[2.128928,41.417422],[2.128924,41.417486],[2.128616,41.41781],[2.12791,41.418288],[2.127908,41.418417],[2.128168,41.41866],[2.128167,41.418763],[2.128024,41.418948],[2.127462,41.41925],[2.127453,41.419375],[2.127582,41.419497],[2.128062,41.419728],[2.128405,41.419707],[2.128689,41.419912],[2.12879,41.419933],[2.128914,41.419867],[2.129071,41.419597],[2.129317,41.41952],[2.129524,41.419513],[2.129764,41.419678],[2.129932,41.420018],[2.130104,41.420078],[2.130583,41.419916],[2.130863,41.419459],[2.131092,41.419392],[2.131546,41.419616],[2.132105,41.419819],[2.132203,41.419934],[2.13215,41.420082],[2.131301,41.421053],[2.13123,41.421262],[2.131265,41.421332],[2.130911,41.421555],[2.130477,41.421961],[2.12995,41.422566],[2.130349,41.422712],[2.13058,41.42275],[2.131903,41.422527],[2.132814,41.422587],[2.133035,41.422545],[2.133554,41.422335],[2.134358,41.422224],[2.134706,41.42213],[2.134777,41.422164],[2.134648,41.422324],[2.134261,41.422598],[2.134214,41.42278],[2.134293,41.42304],[2.134567,41.423511],[2.134648,41.42361],[2.134783,41.423576],[2.134846,41.423723],[2.13516,41.423973],[2.135343,41.424247],[2.135361,41.424377],[2.135048,41.424704],[2.135106,41.42488],[2.135805,41.424648],[2.13598,41.424545],[2.136148,41.424256],[2.136157,41.42377],[2.136285,41.423627],[2.136538,41.423553],[2.137261,41.423461],[2.13759,41.423321],[2.137903,41.423068],[2.13808,41.422825],[2.138409,41.421996],[2.13844,41.421767],[2.138268,41.421533],[2.137739,41.421288],[2.137671,41.421153],[2.137722,41.420994],[2.137881,41.420891],[2.14004,41.420232],[2.140455,41.421098],[2.140813,41.421256],[2.141837,41.421557],[2.141995,41.421548],[2.142206,41.421453],[2.143898,41.42014],[2.144528,41.42053],[2.144715,41.420733],[2.145143,41.420893],[2.146976,41.421264],[2.147802,41.421592],[2.149475,41.421641],[2.149488,41.420606],[2.149272,41.420371],[2.151774,41.420143],[2.151681,41.419816],[2.15165,41.419337],[2.151517,41.418935],[2.15115,41.418498],[2.150897,41.41796],[2.150887,41.417719],[2.15099,41.417588],[2.151417,41.417377],[2.151423,41.417288],[2.151677,41.417206],[2.151838,41.417071],[2.151924,41.416905],[2.15272,41.416809],[2.154656,41.415224],[2.155028,41.414981],[2.155223,41.414924],[2.155372,41.414969],[2.155465,41.41512],[2.155761,41.415107],[2.155995,41.415189],[2.156628,41.415616],[2.157212,41.416513],[2.157424,41.41657],[2.157572,41.416518],[2.157882,41.415897],[2.158349,41.415229],[2.158587,41.414962],[2.159193,41.414447],[2.15978,41.414106],[2.160277,41.413927],[2.160498,41.413924],[2.161056,41.414176],[2.161382,41.413936],[2.161422,41.413757],[2.161236,41.413568],[2.16369,41.410724],[2.168659,41.406929],[2.180484,41.415832],[2.180405,41.416374],[2.180395,41.417482],[2.180491,41.418334],[2.180828,41.419836],[2.180835,41.420034],[2.180746,41.420355],[2.18047,41.420713],[2.176064,41.42545],[2.175788,41.425577],[2.169981,41.427179],[2.167429,41.427549],[2.165165,41.427775],[2.16422,41.427911],[2.163873,41.427986],[2.163632,41.428097],[2.164966,41.428956],[2.166148,41.429626],[2.164839,41.430396],[2.164311,41.430766],[2.163645,41.431388],[2.163231,41.431977],[2.163109,41.432464],[2.163111,41.43288],[2.163581,41.434563],[2.164265,41.436285],[2.163168,41.436588],[2.16352,41.437104],[2.16313,41.437365],[2.16366,41.43786],[2.16244,41.438585],[2.162121,41.43885],[2.161836,41.439182],[2.161664,41.439286],[2.1618,41.439664],[2.161561,41.43995],[2.16155,41.440271],[2.161649,41.440464],[2.16189,41.440665],[2.162118,41.440756],[2.16237,41.440793],[2.162436,41.441016],[2.162401,41.441325],[2.161713,41.441631],[2.161635,41.441565],[2.160126,41.442202],[2.159968,41.442381],[2.159818,41.442285],[2.159698,41.442123],[2.159187,41.442376],[2.158698,41.443011],[2.158493,41.44348],[2.158408,41.443855],[2.158294,41.443998],[2.157991,41.444205],[2.15795,41.444528],[2.157707,41.444835],[2.157472,41.445021],[2.156993,41.445108],[2.156481,41.445413],[2.156105,41.445544],[2.155782,41.445559],[2.155708,41.445652],[2.155835,41.445765],[2.156206,41.445788],[2.157083,41.445962],[2.157253,41.446052],[2.15759,41.446608],[2.157592,41.446713],[2.157469,41.447086],[2.157117,41.447279],[2.157042,41.447433],[2.157493,41.44747],[2.15794,41.447712],[2.158639,41.448406],[2.159425,41.449395],[2.159478,41.449961],[2.159375,41.450191],[2.159212,41.45032],[2.159109,41.450518],[2.158967,41.450517],[2.158775,41.450349],[2.158504,41.450227],[2.158014,41.449829],[2.157445,41.449592],[2.156946,41.449732],[2.156579,41.449914],[2.156019,41.449954],[2.155842,41.449935],[2.155546,41.449821],[2.155166,41.449625],[2.154408,41.44941],[2.153544,41.448787],[2.153432,41.448651],[2.153269,41.447789],[2.152757,41.44761],[2.151971,41.447027],[2.151619,41.447065],[2.15075,41.4473],[2.150004,41.447176],[2.14953,41.447224],[2.149055,41.446953],[2.148424,41.446756],[2.147582,41.446947],[2.147253,41.447114],[2.146615,41.447554],[2.145427,41.447781],[2.145038,41.447955],[2.144598,41.447815],[2.143991,41.447766],[2.143506,41.447617],[2.143028,41.447449],[2.142348,41.44698],[2.142033,41.446939],[2.141652,41.446985],[2.141348,41.447196],[2.141206,41.447217],[2.141019,41.447361],[2.140817,41.447445],[2.140197,41.4475],[2.139865,41.447619],[2.138721,41.447752],[2.137812,41.447956],[2.137587,41.447894],[2.137107,41.447618],[2.136629,41.447744],[2.136344,41.447608],[2.135737,41.447433],[2.134913,41.447594],[2.134731,41.447561],[2.134633,41.447411],[2.134584,41.447091],[2.13384,41.446039],[2.133493,41.445704],[2.132908,41.445428],[2.132907,41.444942],[2.132819,41.44464],[2.132212,41.444212],[2.130719,41.443829],[2.130555,41.443558],[2.129944,41.44303],[2.129945,41.442474],[2.1295,41.441913],[2.129512,41.441744],[2.129956,41.441086],[2.129928,41.44067],[2.129846,41.440542],[2.129447,41.440234],[2.129351,41.440085],[2.129398,41.439582],[2.129365,41.439383],[2.129474,41.43873],[2.129237,41.437663],[2.128652,41.436916],[2.128614,41.43679],[2.128601,41.436598],[2.1288,41.436208],[2.128843,41.435813],[2.128788,41.435544],[2.128844,41.435178],[2.12877,41.434883],[2.128385,41.434225],[2.128309,41.433949],[2.128301,41.433522],[2.127695,41.433266],[2.127537,41.43314],[2.127266,41.432632],[2.126521,41.431847],[2.126424,41.431675],[2.126527,41.43161],[2.12411,41.429614],[2.123668,41.429315],[2.122658,41.428762],[2.122759,41.428664],[2.123082,41.428694],[2.121997,41.426528],[2.121215,41.425783],[2.121347,41.42562],[2.121344,41.425467],[2.120515,41.424108],[2.120468,41.42394],[2.120545,41.423114],[2.120438,41.422802]]]]}},{"type":"Feature","properties":{"kind":"district","code":"08"},"geometry":{"type":"MultiPolygon","coordinates":[[[[2.155707,41.445689],[2.155782,41.445559],[2.15626,41.445497],[2.156611,41.445351],[2.156993,41.445108],[2.157472,41.445021],[2.157707,41.444835],[2.15795,41.444528],[2.157991,41.444205],[2.158294,41.443998],[2.158408,41.443855],[2.158493,41.44348],[2.158698,41.443011],[2.159187,41.442376],[2.159698,41.442123],[2.159818,41.442285],[2.159968,41.442381],[2.160126,41.442202],[2.161635,41.441565],[2.161713,41.441631],[2.162401,41.441325],[2.162436,41.441016],[2.16237,41.440793],[2.162118,41.440756],[2.16189,41.440665],[2.161649,41.440464],[2.16155,41.440271],[2.161561,41.43995],[2.1618,41.439664],[2.161664,41.439286],[2.161836,41.439182],[2.162121,41.43885],[2.16244,41.438585],[2.16366,41.43786],[2.16313,41.437365],[2.16352,41.437104],[2.163168,41.436588],[2.164265,41.436285],[2.163581,41.434563],[2.163111,41.43288],[2.163109,41.432464],[2.163231,41.431977],[2.163645,41.431388],[2.164311,41.430766],[2.164839,41.430396],[2.166148,41.429626],[2.164966,41.428956],[2.163632,41.428097],[2.163873,41.427986],[2.16422,41.427911],[2.165165,41.427775],[2.167429,41.427549],[2.169981,41.427179],[2.175788,41.425577],[2.176064,41.42545],[2.177303,41.425488],[2.177221,41.427342],[2.177292,41.428174],[2.179443,41.427836],[2.184298,41.427644],[2.184374,41.42835],[2.182877,41.430441],[2.182787,41.430637],[2.182672,41.431205],[2.182752,41.431747],[2.185495,41.439899],[2.186452,41.443167],[2.188337,41.448858],[2.188712,41.45011],[2.188799,41.450688],[2.188912,41.453246],[2.188775,41.454844],[2.188557,41.455651],[2.188123,41.45663],[2.187891,41.456907],[2.188414,41.457098],[2.188791,41.457304],[2.188071,41.458318],[2.187744,41.45915],[2.187636,41.459644],[2.187401,41.462082],[2.187641,41.46212],[2.187061,41.467717],[2.185382,41.467795],[2.184583,41.468197],[2.184065,41.468298],[2.183785,41.468296],[2.182022,41.467952],[2.181687,41.467843],[2.180693,41.467673],[2.179413,41.467594],[2.178695,41.468184],[2.17861,41.467421],[2.178671,41.467084],[2.178936,41.466535],[2.179167,41.466214],[2.179844,41.465506],[2.180137,41.465269],[2.180712,41.46494],[2.177465,41.464161],[2.176958,41.464132],[2.176921,41.464092],[2.176251,41.46399],[2.17573,41.463733],[2.174916,41.463852],[2.174878,41.463699],[2.174524,41.463484],[2.174352,41.463484],[2.174355,41.462972],[2.174169,41.462637],[2.173996,41.462539],[2.17376,41.462535],[2.172646,41.461869],[2.172134,41.461443],[2.171749,41.461205],[2.171405,41.460822],[2.171224,41.461213],[2.1705,41.460962],[2.170019,41.460844],[2.170012,41.460754],[2.169287,41.46063],[2.168318,41.460285],[2.168263,41.460697],[2.167325,41.46068],[2.167242,41.460472],[2.16736,41.460143],[2.167525,41.459931],[2.167313,41.459887],[2.167166,41.4598],[2.166934,41.459492],[2.166921,41.459175],[2.166162,41.458465],[2.165799,41.458416],[2.165741,41.458373],[2.165623,41.458029],[2.165317,41.45769],[2.164229,41.456045],[2.164169,41.455794],[2.164407,41.455116],[2.164506,41.45501],[2.164733,41.454943],[2.16489,41.45484],[2.164924,41.454771],[2.164956,41.454334],[2.164797,41.453772],[2.164901,41.453163],[2.164801,41.452675],[2.164938,41.452524],[2.165333,41.452249],[2.165568,41.451795],[2.165598,41.45158],[2.165556,41.451482],[2.16531,41.451313],[2.164757,41.451061],[2.164638,41.450853],[2.164359,41.450569],[2.16417,41.449866],[2.164038,41.449786],[2.162787,41.449789],[2.16186,41.450258],[2.161043,41.450327],[2.160211,41.450333],[2.159998,41.450433],[2.15956,41.450521],[2.159109,41.450518],[2.159212,41.45032],[2.159375,41.450191],[2.159478,41.449961],[2.159425,41.449395],[2.158639,41.448406],[2.15794,41.447712],[2.157493,41.44747],[2.157042,41.447433],[2.157117,41.447279],[2.157469,41.447086],[2.157592,41.446713],[2.15759,41.446608],[2.157253,41.446052],[2.157083,41.445962],[2.156206,41.445788],[2.155835,41.445765],[2.155707,41.445689]]]]}},{"type":"Feature","properties":{"kind":"district","code":"09"},"geometry":{"type":"MultiPolygon","coordinates":[[[[2.187641,41.46212],[2.187401,41.462082],[2.187601,41.459942],[2.187719,41.459233],[2.188071,41.458318],[2.188791,41.457304],[2.188414,41.457098],[2.187891,41.456907],[2.188123,41.45663],[2.188557,41.455651],[2.188775,41.454844],[2.188912,41.453246],[2.188799,41.450688],[2.188712,41.45011],[2.188337,41.448858],[2.186452,41.443167],[2.185495,41.439899],[2.182752,41.431747],[2.182672,41.431205],[2.182787,41.430637],[2.182877,41.430441],[2.184374,41.42835],[2.184298,41.427644],[2.179443,41.427836],[2.177292,41.428174],[2.177221,41.427342],[2.177303,41.425488],[2.176064,41.42545],[2.18047,41.420713],[2.180746,41.420355],[2.180835,41.420034],[2.180828,41.419836],[2.180491,41.418334],[2.180395,41.417482],[2.180405,41.416374],[2.180484,41.415832],[2.183361,41.41795],[2.189034,41.413678],[2.190977,41.415168],[2.191109,41.415543],[2.192414,41.414545],[2.193543,41.415397],[2.193234,41.416315],[2.193293,41.416802],[2.194033,41.418816],[2.195219,41.422391],[2.195487,41.422344],[2.195604,41.42265],[2.19589,41.424424],[2.196548,41.426587],[2.196425,41.426662],[2.197215,41.428748],[2.197571,41.42921],[2.198399,41.429821],[2.198943,41.430032],[2.199495,41.430123],[2.200235,41.430176],[2.200686,41.430159],[2.201105,41.430087],[2.201946,41.429861],[2.202984,41.429479],[2.207024,41.427584],[2.207352,41.427977],[2.207279,41.428012],[2.207361,41.428107],[2.207275,41.428787],[2.207139,41.428854],[2.207324,41.429068],[2.207249,41.429105],[2.206921,41.429913],[2.207008,41.430014],[2.20654,41.430242],[2.206797,41.430537],[2.206673,41.430581],[2.206483,41.431081],[2.206171,41.432271],[2.206471,41.432641],[2.208041,41.433131],[2.209545,41.433236],[2.210759,41.43343],[2.210167,41.434518],[2.209627,41.435759],[2.208401,41.439996],[2.207991,41.441096],[2.207322,41.442373],[2.206835,41.443116],[2.206298,41.443808],[2.203211,41.447103],[2.199573,41.450725],[2.197713,41.452276],[2.191311,41.456851],[2.189787,41.458219],[2.189014,41.459039],[2.188328,41.460045],[2.187873,41.461079],[2.187641,41.46212]]]]}},{"type":"Feature","properties":{"kind":"district","code":"10"},"geometry":{"type":"MultiPolygon","coordinates":[[[[2.207364,41.427111],[2.206838,41.427361],[2.207024,41.427584],[2.202984,41.429479],[2.201527,41.429993],[2.200686,41.430159],[2.199901,41.430162],[2.198943,41.430032],[2.198399,41.429821],[2.197571,41.42921],[2.19732,41.428937],[2.196956,41.427967],[2.196623,41.42728],[2.196425,41.426662],[2.196548,41.426587],[2.19589,41.424424],[2.195604,41.42265],[2.195487,41.422344],[2.195219,41.422391],[2.194033,41.418816],[2.193247,41.41664],[2.193234,41.416315],[2.19329,41.416056],[2.193543,41.415397],[2.193358,41.415252],[2.192414,41.414545],[2.191109,41.415543],[2.190977,41.415168],[2.189034,41.413678],[2.183361,41.41795],[2.175468,41.412036],[2.185669,41.404306],[2.184527,41.403452],[2.186895,41.401656],[2.186865,41.394968],[2.186738,41.394921],[2.186664,41.394831],[2.186664,41.394724],[2.186732,41.394639],[2.182381,41.39142],[2.184586,41.389756],[2.18677,41.391393],[2.193573,41.38624],[2.195755,41.387852],[2.195838,41.387648],[2.195949,41.387538],[2.196173,41.387459],[2.19642,41.387466],[2.199722,41.384987],[2.199986,41.385192],[2.199762,41.385324],[2.199837,41.385383],[2.199588,41.385701],[2.199422,41.38558],[2.199288,41.38568],[2.199489,41.385832],[2.198313,41.386718],[2.19843,41.386808],[2.198312,41.386895],[2.200221,41.388332],[2.200341,41.388244],[2.200457,41.388333],[2.201964,41.387198],[2.200197,41.385868],[2.200836,41.385385],[2.201125,41.3856],[2.200985,41.385704],[2.201036,41.385742],[2.201174,41.385639],[2.201409,41.385815],[2.201204,41.385973],[2.202097,41.386644],[2.202148,41.386606],[2.202188,41.386636],[2.202138,41.386674],[2.202397,41.386871],[2.202603,41.386715],[2.202515,41.386648],[2.202622,41.386701],[2.202745,41.386608],[2.202642,41.386471],[2.202551,41.386513],[2.202515,41.386465],[2.202607,41.386425],[2.201796,41.385506],[2.20075,41.384582],[2.200034,41.384106],[2.199896,41.384151],[2.199399,41.383886],[2.198867,41.383669],[2.19887,41.383607],[2.199008,41.383503],[2.199418,41.383361],[2.199776,41.383352],[2.200056,41.383471],[2.200235,41.383621],[2.200544,41.383735],[2.200588,41.383837],[2.200669,41.383858],[2.200594,41.383975],[2.200529,41.383984],[2.200369,41.383924],[2.200256,41.383806],[2.199779,41.383599],[2.199502,41.383591],[2.19951,41.383655],[2.19973,41.383663],[2.200626,41.384158],[2.201862,41.385173],[2.202784,41.386173],[2.2033,41.38688],[2.203621,41.387417],[2.203055,41.38784],[2.20326,41.387931],[2.203427,41.3881],[2.20339,41.388159],[2.202917,41.38783],[2.202946,41.38781],[2.202833,41.387654],[2.201492,41.388654],[2.201666,41.389166],[2.201847,41.389519],[2.202075,41.389795],[2.202561,41.390215],[2.202996,41.390498],[2.203546,41.390784],[2.204421,41.391081],[2.204747,41.391111],[2.204919,41.390978],[2.204993,41.390978],[2.205759,41.390392],[2.205891,41.390491],[2.205159,41.391094],[2.204567,41.391493],[2.204823,41.391683],[2.20551,41.391109],[2.205613,41.391082],[2.206142,41.390679],[2.206271,41.390775],[2.205729,41.391185],[2.205748,41.391234],[2.205475,41.391444],[2.20551,41.391548],[2.206364,41.392801],[2.20703,41.393618],[2.207631,41.394272],[2.208203,41.394795],[2.208904,41.395247],[2.209435,41.395475],[2.210065,41.395646],[2.211318,41.394742],[2.211448,41.394839],[2.210912,41.395245],[2.211127,41.395407],[2.211252,41.395311],[2.211309,41.395353],[2.211718,41.395038],[2.211849,41.395134],[2.210735,41.396027],[2.211112,41.396777],[2.211641,41.397467],[2.212119,41.397954],[2.212802,41.398583],[2.213636,41.399139],[2.214071,41.399291],[2.214399,41.399352],[2.214996,41.398944],[2.21502,41.398853],[2.21515,41.398744],[2.215481,41.398582],[2.215588,41.398595],[2.21558,41.39865],[2.215337,41.398856],[2.215421,41.398925],[2.215673,41.398797],[2.215715,41.398874],[2.215639,41.398984],[2.21533,41.399161],[2.214562,41.399744],[2.214921,41.400476],[2.215295,41.401049],[2.215713,41.401553],[2.216148,41.401951],[2.216614,41.40228],[2.217341,41.402593],[2.218223,41.402025],[2.218778,41.401541],[2.218947,41.401514],[2.218367,41.402013],[2.218348,41.402095],[2.217151,41.40294],[2.217565,41.403529],[2.218001,41.403996],[2.218494,41.404383],[2.219216,41.40478],[2.220307,41.405153],[2.221824,41.404017],[2.222153,41.403876],[2.22195,41.403547],[2.222024,41.40349],[2.222152,41.403525],[2.222462,41.403805],[2.222935,41.404626],[2.223385,41.405146],[2.223379,41.405298],[2.223242,41.405285],[2.222861,41.40498],[2.222372,41.404198],[2.222175,41.404078],[2.221976,41.404151],[2.22172,41.40436],[2.221688,41.404407],[2.221746,41.404485],[2.221525,41.404699],[2.221455,41.404659],[2.220971,41.40514],[2.221521,41.405534],[2.221817,41.405315],[2.221766,41.405112],[2.221923,41.405075],[2.222269,41.405343],[2.222422,41.40531],[2.22268,41.405393],[2.222907,41.405742],[2.223076,41.405837],[2.223171,41.406009],[2.223433,41.406179],[2.223858,41.40624],[2.223935,41.40632],[2.224204,41.406181],[2.224328,41.406167],[2.22449,41.40623],[2.224686,41.40647],[2.224919,41.406427],[2.225111,41.40632],[2.2255,41.405955],[2.225717,41.405967],[2.225806,41.406123],[2.225691,41.406329],[2.225287,41.406543],[2.224779,41.406937],[2.225024,41.407336],[2.225472,41.407016],[2.225428,41.406962],[2.225655,41.406733],[2.225883,41.406611],[2.226095,41.406622],[2.226199,41.406706],[2.226208,41.406818],[2.226164,41.406888],[2.226036,41.406941],[2.226163,41.407111],[2.226161,41.407213],[2.226053,41.407182],[2.22611,41.407254],[2.226228,41.407359],[2.226344,41.407162],[2.226419,41.40709],[2.226475,41.407096],[2.226541,41.407467],[2.226487,41.407692],[2.226619,41.407774],[2.226666,41.407864],[2.226741,41.407876],[2.226807,41.407629],[2.226867,41.407601],[2.226926,41.407628],[2.227021,41.407889],[2.226917,41.408114],[2.227019,41.408195],[2.227057,41.408124],[2.227167,41.408083],[2.227425,41.408094],[2.228018,41.409043],[2.228045,41.409224],[2.227939,41.409543],[2.227886,41.409616],[2.227712,41.409614],[2.227503,41.409409],[2.227369,41.408986],[2.227244,41.408948],[2.22698,41.408411],[2.227053,41.408275],[2.226891,41.408252],[2.226781,41.407986],[2.226568,41.407886],[2.226441,41.407767],[2.226412,41.407621],[2.226275,41.40743],[2.226097,41.407381],[2.225972,41.407146],[2.225836,41.407088],[2.225746,41.407097],[2.225427,41.40732],[2.225828,41.407943],[2.225838,41.407761],[2.225948,41.407749],[2.226079,41.407888],[2.225897,41.408045],[2.226176,41.408476],[2.226258,41.408513],[2.226249,41.408543],[2.226177,41.4085],[2.226116,41.408537],[2.226211,41.408548],[2.226144,41.408576],[2.226357,41.408904],[2.226411,41.408648],[2.226339,41.408646],[2.226257,41.408438],[2.226395,41.408401],[2.226533,41.408577],[2.22645,41.408634],[2.226417,41.408896],[2.226638,41.409237],[2.226792,41.409362],[2.226747,41.409657],[2.227213,41.410378],[2.223251,41.411987],[2.22288,41.412161],[2.222795,41.412317],[2.220976,41.413078],[2.221368,41.413514],[2.220884,41.413774],[2.220443,41.414167],[2.218194,41.417294],[2.217792,41.416989],[2.216093,41.418267],[2.216321,41.418437],[2.214021,41.420173],[2.213787,41.42],[2.212589,41.420898],[2.212477,41.420814],[2.211279,41.421671],[2.211815,41.422072],[2.211446,41.422376],[2.211323,41.422565],[2.211131,41.423212],[2.210949,41.423469],[2.210604,41.423759],[2.209801,41.424174],[2.209599,41.424344],[2.209372,41.424723],[2.209257,41.425187],[2.209087,41.425345],[2.208659,41.425023],[2.208435,41.425176],[2.207976,41.425023],[2.207771,41.424986],[2.20754,41.425002],[2.207299,41.425183],[2.206766,41.425422],[2.206067,41.425613],[2.20614,41.425801],[2.206353,41.426049],[2.206463,41.426401],[2.206761,41.426752],[2.206976,41.42665],[2.207364,41.427111]]]]}},{"type":"Feature","properties":{"kind":"barri","code":"05"},"geometry":{"type":"MultiPolygon","coordinates":[[[[2.183527,41.392268],[2.186732,41.394639],[2.186664,41.394724],[2.186664,41.394831],[2.186738,41.394921],[2.186865,41.394968],[2.186895,41.401656],[2.185175,41.40296],[2.173325,41.399981],[2.177812,41.396594],[2.176031,41.395253],[2.176152,41.395109],[2.176202,41.394926],[2.17614,41.394721],[2.175986,41.394551],[2.180229,41.391348],[2.181323,41.392222],[2.182381,41.39142],[2.183527,41.392268]]]]}},{"type":"Feature","properties":{"kind":"barri","code":"06"},"geometry":{"type":"MultiPolygon","coordinates":[[[[2.173368,41.399991],[2.185175,41.40296],[2.184527,41.403452],[2.185669,41.404306],[2.175468,41.412036],[2.168659,41.406929],[2.172043,41.404369],[2.169778,41.402672],[2.173325,41.399981],[2.173368,41.399991]]]]}},{"type":"Feature","properties":{"kind":"barri","code":"07"},"geometry":{"type":"MultiPolygon","coordinates":[[[[2.170909,41.401817],[2.169778,41.402672],[2.167353,41.400855],[2.166218,41.40171],[2.159226,41.396461],[2.154711,41.395318],[2.165392,41.387256],[2.164168,41.386342],[2.164714,41.38593],[2.169358,41.38554],[2.169769,41.385574],[2.170284,41.385879],[2.171138,41.386842],[2.17151,41.387044],[2.172765,41.388474],[2.173409,41.388948],[2.175851,41.388949],[2.17749,41.390164],[2.179859,41.391052],[2.180229,41.391348],[2.175986,41.394551],[2.17614,41.394721],[2.176202,41.394926],[2.176152,41.395109],[2.176031,41.395253],[2.177812,41.396594],[2.170909,41.401817]]]]}},{"type":"Feature","properties":{"kind":"barri","code":"08"},"geometry":{"type":"MultiPolygon","coordinates":[[[[2.157355,41.393306],[2.154711,41.395318],[2.144978,41.392855],[2.14499,41.392651],[2.144835,41.392458],[2.144583,41.392368],[2.144344,41.392384],[2.143958,41.391471],[2.143649,41.390501],[2.148459,41.38977],[2.158572,41.382139],[2.165392,41.387256],[2.157355,41.393306]]]]}},{"type":"Feature","properties":{"kind":"barri","code":"09"},"geometry":{"type":"MultiPolygon","coordinates":[[[[2.149838,41.375388],[2.150034,41.375686],[2.150588,41.376155],[2.158572,41.382139],[2.148459,41.38977],[2.143649,41.390501],[2.14294,41.387678],[2.142751,41.386603],[2.142303,41.380718],[2.148236,41.376232],[2.148958,41.375768],[2.149767,41.375168],[2.149838,41.375388]]]]}},{"type":"Feature","properties":{"kind":"barri","code":"10"},"geometry":{"type":"MultiPolygon","coordinates":[[[[2.167788,41.375167],[2.163089,41.378747],[2.164011,41.385398],[2.164714,41.38593],[2.164168,41.386342],[2.150588,41.376155],[2.150034,41.375686],[2.149838,41.375388],[2.149767,41.375168],[2.149899,41.375074],[2.150989,41.375035],[2.167797,41.374976],[2.167788,41.375167]]]]}}]}