{"type":"FeatureCollection","features":[{"type":"Feature","properties":{"s":"st-carrer-de-l-abat-safont"},"geometry":{"type":"MultiLineString","coordinates":[[[2.16872,41.37598],[2.16979,41.37498]]]}},{"type":"Feature","properties":{"s":"st-carrer-d-abdo-terradas"},"geometry":{"type":"MultiLineString","coordinates":[[[2.16249,41.39949],[2.16357,41.40037]]]}},{"type":"Feature","properties":{"s":"st-carrer-d-alaba"},"geometry":{"type":"MultiLineString","coordinates":[[[2.18817,41.40072],[2.18771,41.4011],[2.18697,41.4016]]]}},{"type":"Feature","properties":{"s":"st-passatge-d-albert-pinyol"},"geometry":{"type":"MultiLineString","coordinates":[[[2.14074,41.38421],[2.14024,41.38535]]]}},{"type":"Feature","properties":{"s":"st-carrer-d-aldana"},"geometry":{"type":"MultiLineString","coordinates":[[[2.16657,41.37605],[2.16548,41.37496]]]}},{"type":"Feature","properties":{"s":"st-carrer-d-ali-bei"},"geometry":{"type":"MultiLineString","coordinates":[[[2.18694,41.39814],[2.18469,41.39643],[2.1836,41.39563],[2.18251,41.39478],[2.18155,41.39409],[2.17906,41.39223],[2.17793,41.39138],[2.17684,41.3905]]]}},{"type":"Feature","properties":{"s":"st-passatge-d-alio"},"geometry":{"type":"MultiLineString","coordinates":[[[2.16584,41.4031],[2.16696,41.40227]]]}},{"type":"Feature","properties":{"s":"st-carrer-dels-almogavers"},"geometry":{"type":"MultiLineString","coordinates":[[[2.18164,41.39088],[2.18235,41.39142],[2.18811,41.39566],[2.18917,41.39647]]]}},{"type":"Feature","properties":{"s":"st-carrer-de-sant-pere-mes-alt"},"geometry":{"type":"MultiLineString","coordinates":[[[2.17866,41.38936],[2.17843,41.3893],[2.17798,41.38909],[2.17728,41.38879],[2.17665,41.38843],[2.17638,41.38819],[2.17554,41.38738],[2.1752,41.38721]]]}},{"type":"Feature","properties":{"s":"st-carrer-d-amadeu-vives"},"geometry":{"type":"MultiLineString","coordinates":[[[2.17487,41.38817],[2.17569,41.38752]]]}},{"type":"Feature","properties":{"s":"st-carretera-antiga-d-horta"},"geometry":{"type":"MultiLineString","coordinates":[[[2.18036,41.3932],[2.18023,41.39413]]]}},{"type":"Feature","properties":{"s":"st-carrer-d-arago"},"geometry":{"type":"MultiLineString","coordinates":[[[2.14591,41.37799],[2.14715,41.37883],[2.15395,41.38393],[2.15677,41.38606],[2.15804,41.387],[2.1596,41.38819],[2.16638,41.39327],[2.16901,41.39526],[2.16937,41.39555],[2.17092,41.39668],[2.17204,41.39754],[2.17318,41.39839],[2.17429,41.39925],[2.17612,41.40056]],[[2.17659,41.40092],[2.18001,41.40354],[2.18507,41.40731]]]}},{"type":"Feature","properties":{"s":"st-passatge-d-arago"},"geometry":{"type":"MultiLineString","coordinates":[[[2.15677,41.38606],[2.15748,41.38552]]]}},{"type":"Feature","properties":{"s":"st-passatge-d-arcadia"},"geometry":{"type":"MultiLineString","coordinates":[[[2.15233,41.39566],[2.15305,41.39617]]]}},{"type":"Feature","properties":{"s":"st-carrer-de-l-arc-de-sant-pau"},"geometry":{"type":"MultiLineString","coordinates":[[[2.16932,41.37652],[2.16863,41.37669]]]}},{"type":"Feature","properties":{"s":"st-carrer-de-l-argenter"},"geometry":{"type":"MultiLineString","coordinates":[[[2.17665,41.38843],[2.17743,41.38789]]]}},{"type":"Feature","properties":{"s":"st-carrer-d-aribau"},"geometry":{"type":"MultiLineString","coordinates":[[[2.1631,41.38555],[2.15131,41.39446],[2.15059,41.39497]]]}},{"type":"Feature","properties":{"s":"st-via-augusta"},"geometry":{"type":"MultiLineString","coordinates":[[[2.15571,41.39556],[2.1553,41.39625],[2.15497,41.39674]]]}},{"type":"Feature","properties":{"s":"st-carrer-d-ausias-marc"},"geometry":{"type":"MultiLineString","coordinates":[[[2.18485,41.39823],[2.18221,41.39627],[2.18133,41.39563],[2.18021,41.39477],[2.17341,41.38969]]]}},{"type":"Feature","properties":{"s":"st-carrer-de-bailen"},"geometry":{"type":"MultiLineString","coordinates":[[[2.17837,41.39106],[2.17793,41.39138],[2.17318,41.39498],[2.17203,41.39583],[2.17092,41.39668],[2.16976,41.39754],[2.16637,41.40013],[2.16522,41.40096],[2.16464,41.40141],[2.16415,41.40181],[2.16368,41.40215]]]}},{"type":"Feature","properties":{"s":"st-carrer-de-sant-pere-mes-baix"},"geometry":{"type":"MultiLineString","coordinates":[[[2.17952,41.38916],[2.17932,41.3889]]]}},{"type":"Feature","properties":{"s":"st-carrer-de-balmes"},"geometry":{"type":"MultiLineString","coordinates":[[[2.16771,41.38567],[2.16627,41.38656],[2.16535,41.38724],[2.163,41.38904],[2.15471,41.39531],[2.15382,41.39601]]]}},{"type":"Feature","properties":{"s":"st-carrer-la-rambla"},"geometry":{"type":"MultiLineString","coordinates":[[[2.17067,41.38459],[2.17059,41.3847],[2.17009,41.38549]]]}},{"type":"Feature","properties":{"s":"st-passatge-de-batllo"},"geometry":{"type":"MultiLineString","coordinates":[[[2.15225,41.38774],[2.1511,41.3886]]]}},{"type":"Feature","properties":{"s":"st-carrer-de-bejar"},"geometry":{"type":"MultiLineString","coordinates":[[[2.14319,41.37923],[2.14405,41.37838],[2.14595,41.37659],[2.1465,41.37518]]]}},{"type":"Feature","properties":{"s":"st-carrer-de-bergnes-de-las-casas"},"geometry":{"type":"MultiLineString","coordinates":[[[2.1709,41.40955],[2.17025,41.4101]]]}},{"type":"Feature","properties":{"s":"st-carrer-de-berlin"},"geometry":{"type":"MultiLineString","coordinates":[[[2.14262,41.38549],[2.14151,41.38478],[2.14074,41.38421],[2.14035,41.38394]]]}},{"type":"Feature","properties":{"s":"st-carrer-de-blasco-de-garay"},"geometry":{"type":"MultiLineString","coordinates":[[[2.1632,41.37497],[2.1631,41.37421],[2.16274,41.37327]]]}},{"type":"Feature","properties":{"s":"st-carrer-de-blai"},"geometry":{"type":"MultiLineString","coordinates":[[[2.16147,41.37497],[2.16202,41.37463],[2.16449,41.37369],[2.16578,41.37319]]]}},{"type":"Feature","properties":{"s":"st-passatge-de-bocabella"},"geometry":{"type":"MultiLineString","coordinates":[[[2.17705,41.39716],[2.17592,41.39632]]]}},{"type":"Feature","properties":{"s":"st-passatge-de-bofill"},"geometry":{"type":"MultiLineString","coordinates":[[[2.17714,41.4024],[2.17825,41.40324]]]}},{"type":"Feature","properties":{"s":"st-carrer-de-bolivia"},"geometry":{"type":"MultiLineString","coordinates":[[[2.18817,41.40072],[2.18695,41.39989]]]}},{"type":"Feature","properties":{"s":"st-carrer-del-bou-de-sant-pere"},"geometry":{"type":"MultiLineString","coordinates":[[[2.17638,41.38819],[2.17716,41.38764]]]}},{"type":"Feature","properties":{"s":"st-carrer-de-breda"},"geometry":{"type":"MultiLineString","coordinates":[[[2.14029,41.38572],[2.14155,41.38653]]]}},{"type":"Feature","properties":{"s":"st-carrer-del-bruc"},"geometry":{"type":"MultiLineString","coordinates":[[[2.17625,41.38924],[2.17217,41.39234],[2.1709,41.39327],[2.16483,41.39786],[2.16294,41.39926]]]}},{"type":"Feature","properties":{"s":"st-carrer-del-bon-pastor"},"geometry":{"type":"MultiLineString","coordinates":[[[2.14961,41.39403],[2.15059,41.39497]]]}},{"type":"Feature","properties":{"s":"st-carrer-de-buenaventura-munoz"},"geometry":{"type":"MultiLineString","coordinates":[[[2.18273,41.39007],[2.18457,41.39146],[2.18687,41.39313]],[[2.18795,41.39395],[2.18687,41.39326]]]}},{"type":"Feature","properties":{"s":"st-carrer-de-bonavista"},"geometry":{"type":"MultiLineString","coordinates":[[[2.15854,41.39751],[2.16035,41.39868],[2.16077,41.39896]]]}},{"type":"Feature","properties":{"s":"st-carrer-de-buenos-aires"},"geometry":{"type":"MultiLineString","coordinates":[[[2.1483,41.39331],[2.14431,41.3904]],[[2.1483,41.39331],[2.14791,41.3936],[2.14875,41.39381],[2.1483,41.39331]]]}},{"type":"Feature","properties":{"s":"st-carrer-del-bonsucces"},"geometry":{"type":"MultiLineString","coordinates":[[[2.17067,41.38459],[2.16988,41.38413]]]}},{"type":"Feature","properties":{"s":"st-placa-del-bonsucces"},"geometry":{"type":"MultiLineString","coordinates":[[[2.16988,41.38413],[2.16932,41.38379]]]}},{"type":"Feature","properties":{"s":"st-carrer-de-bordeus"},"geometry":{"type":"MultiLineString","coordinates":[[[2.14217,41.38813],[2.14169,41.38842]]]}},{"type":"Feature","properties":{"s":"st-placa-de-caba"},"geometry":{"type":"MultiLineString","coordinates":[[[2.142,41.38536],[2.14169,41.38601]]]}},{"type":"Feature","properties":{"s":"st-carrer-de-calabria"},"geometry":{"type":"MultiLineString","coordinates":[[[2.16093,41.37498],[2.1598,41.37607],[2.15055,41.38308],[2.1494,41.38392],[2.14715,41.38563],[2.14489,41.38733],[2.14376,41.38819],[2.14346,41.38846]]]}},{"type":"Feature","properties":{"s":"st-carrer-de-calvet"},"geometry":{"type":"MultiLineString","coordinates":[[[2.14554,41.393],[2.1441,41.3942]]]}},{"type":"Feature","properties":{"s":"st-placa-de-francesc-macia"},"geometry":{"type":"MultiLineString","coordinates":[[[2.14489,41.39245],[2.14498,41.39286],[2.14422,41.39303],[2.14397,41.39282],[2.14406,41.39253],[2.14435,41.39237],[2.14489,41.39245]]]}},{"type":"Feature","properties":{"s":"st-passatge-dels-camps-elisis"},"geometry":{"type":"MultiLineString","coordinates":[[[2.1635,41.39453],[2.16464,41.39367]]]}},{"type":"Feature","properties":{"s":"st-carrer-de-camprodon"},"geometry":{"type":"MultiLineString","coordinates":[[[2.16357,41.40037],[2.16464,41.40141]]]}},{"type":"Feature","properties":{"s":"st-passatge-de-canadell"},"geometry":{"type":"MultiLineString","coordinates":[[[2.17484,41.40747],[2.17595,41.40829]]]}},{"type":"Feature","properties":{"s":"st-passatge-del-canonge-cuffi"},"geometry":{"type":"MultiLineString","coordinates":[[[2.17577,41.41058],[2.17626,41.41022]]]}},{"type":"Feature","properties":{"s":"st-carrer-de-la-canuda"},"geometry":{"type":"MultiLineString","coordinates":[[[2.17067,41.38459],[2.17179,41.38468]]]}},{"type":"Feature","properties":{"s":"st-passatge-dels-caputxins"},"geometry":{"type":"MultiLineString","coordinates":[[[2.16548,41.39994],[2.16468,41.40054]]]}},{"type":"Feature","properties":{"s":"st-carrer-de-les-carretes"},"geometry":{"type":"MultiLineString","coordinates":[[[2.1691,41.37639],[2.16863,41.37669],[2.16685,41.3778],[2.16566,41.37855]]]}},{"type":"Feature","properties":{"s":"st-passatge-de-carsi"},"geometry":{"type":"MultiLineString","coordinates":[[[2.17602,41.40656],[2.17671,41.40709]]]}},{"type":"Feature","properties":{"s":"st-carrer-de-cartagena"},"geometry":{"type":"MultiLineString","coordinates":[[[2.17303,41.41218],[2.17544,41.41033],[2.17998,41.40689],[2.18492,41.40314]]]}},{"type":"Feature","properties":{"s":"st-carrer-de-casanova"},"geometry":{"type":"MultiLineString","coordinates":[[[2.16351,41.3818],[2.16209,41.38289],[2.16082,41.38383],[2.15846,41.38563],[2.15397,41.38902],[2.15303,41.39004],[2.15167,41.39076],[2.14687,41.3944]]]}},{"type":"Feature","properties":{"s":"st-passatge-de-casanovas"},"geometry":{"type":"MultiLineString","coordinates":[[[2.17178,41.41048],[2.17193,41.41025]]]}},{"type":"Feature","properties":{"s":"st-carrer-de-casp"},"geometry":{"type":"MultiLineString","coordinates":[[[2.1837,41.3991],[2.18244,41.39816],[2.18134,41.39732],[2.17905,41.39563],[2.17797,41.39479],[2.17568,41.39309],[2.17456,41.39223],[2.17227,41.39055],[2.16949,41.38844]]]}},{"type":"Feature","properties":{"s":"st-placa-de-castella"},"geometry":{"type":"MultiLineString","coordinates":[[[2.16567,41.38505],[2.16614,41.38499],[2.16551,41.38478]],[[2.16567,41.38505],[2.16526,41.38509]],[[2.16567,41.38505],[2.16554,41.3849]],[[2.16526,41.38509],[2.16469,41.38516],[2.16521,41.3848],[2.16523,41.38494]],[[2.16526,41.38509],[2.16523,41.38494]],[[2.16551,41.38478],[2.16554,41.3849]],[[2.16551,41.38478],[2.16547,41.38455]],[[2.16554,41.3849],[2.16523,41.38494]]]}},{"type":"Feature","properties":{"s":"st-carrer-de-los-castillejos"},"geometry":{"type":"MultiLineString","coordinates":[[[2.17436,41.4095],[2.17546,41.40865],[2.17777,41.40693],[2.18225,41.40349],[2.18462,41.40169],[2.18695,41.39989]],[[2.17191,41.41135],[2.17323,41.41036],[2.17436,41.40954]]]}},{"type":"Feature","properties":{"s":"st-placa-de-catalunya"},"geometry":{"type":"MultiLineString","coordinates":[[[2.17132,41.38694],[2.17008,41.38795],[2.16854,41.38739],[2.16938,41.38661],[2.17009,41.38549],[2.17132,41.38694]],[[2.17132,41.38694],[2.17153,41.38709]]]}},{"type":"Feature","properties":{"s":"st-rambla-de-catalunya"},"geometry":{"type":"MultiLineString","coordinates":[[[2.15687,41.39586],[2.16459,41.39024],[2.16854,41.38739]]]}},{"type":"Feature","properties":{"s":"st-carrer-de-cai-celi"},"geometry":{"type":"MultiLineString","coordinates":[[[2.14473,41.37644],[2.14576,41.37677]]]}},{"type":"Feature","properties":{"s":"st-carrer-de-la-cendra"},"geometry":{"type":"MultiLineString","coordinates":[[[2.16474,41.37913],[2.16421,41.37982],[2.16377,41.38036]]]}},{"type":"Feature","properties":{"s":"st-passatge-de-centelles"},"geometry":{"type":"MultiLineString","coordinates":[[[2.1793,41.4074],[2.18044,41.40826]]]}},{"type":"Feature","properties":{"s":"st-carrer-de-la-cera"},"geometry":{"type":"MultiLineString","coordinates":[[[2.16584,41.3787],[2.16566,41.37855],[2.16525,41.3781],[2.16464,41.37753]]]}},{"type":"Feature","properties":{"s":"st-carrer-de-sardenya"},"geometry":{"type":"MultiLineString","coordinates":[[[2.17319,41.40349],[2.16863,41.40693],[2.16713,41.40809]],[[2.17431,41.40264],[2.17659,41.40092],[2.1777,41.40009],[2.18231,41.39659],[2.18581,41.39397],[2.18687,41.39326]]]}},{"type":"Feature","properties":{"s":"st-passatge-de-clip"},"geometry":{"type":"MultiLineString","coordinates":[[[2.17307,41.40768],[2.17347,41.40798]]]}},{"type":"Feature","properties":{"s":"st-passatge-del-coll-del-portell"},"geometry":{"type":"MultiLineString","coordinates":[[[2.17498,41.39803],[2.17543,41.39771]]]}},{"type":"Feature","properties":{"s":"st-placeta-del-comerc"},"geometry":{"type":"MultiLineString","coordinates":[[[2.18096,41.38983],[2.18136,41.38969],[2.18138,41.38989]]]}},{"type":"Feature","properties":{"s":"st-passatge-de-la-concepcio"},"geometry":{"type":"MultiLineString","coordinates":[[[2.15939,41.39403],[2.16103,41.39528]]]}},{"type":"Feature","properties":{"s":"st-carrer-de-la-concordia"},"geometry":{"type":"MultiLineString","coordinates":[[[2.16147,41.37497],[2.16123,41.37453],[2.16066,41.37395],[2.16,41.37323]]]}},{"type":"Feature","properties":{"s":"st-carrer-comtal"},"geometry":{"type":"MultiLineString","coordinates":[[[2.17239,41.38613],[2.17317,41.38648],[2.17398,41.38673]]]}},{"type":"Feature","properties":{"s":"st-carrer-nou-de-la-rambla"},"geometry":{"type":"MultiLineString","coordinates":[[[2.17,41.37497],[2.16914,41.37409],[2.16843,41.37344]]]}},{"type":"Feature","properties":{"s":"st-carrer-del-comte-borrell"},"geometry":{"type":"MultiLineString","coordinates":[[[2.14943,41.38733],[2.15055,41.38648],[2.15169,41.38564],[2.153,41.38464],[2.15395,41.38393],[2.15868,41.38033],[2.16032,41.37911],[2.16206,41.37777],[2.16433,41.37607],[2.16548,41.37496]],[[2.14716,41.38905],[2.14618,41.39002],[2.14558,41.39021],[2.14396,41.39142]]]}},{"type":"Feature","properties":{"s":"st-carrer-del-comte-de-salvatierra"},"geometry":{"type":"MultiLineString","coordinates":[[[2.15497,41.39674],[2.15382,41.39601]]]}},{"type":"Feature","properties":{"s":"st-carrer-del-consell-de-cent"},"geometry":{"type":"MultiLineString","coordinates":[[[2.14942,41.37882],[2.15166,41.38053],[2.163,41.38904],[2.16596,41.39129],[2.17317,41.39668],[2.17431,41.39755],[2.17498,41.39803],[2.17655,41.39924],[2.1777,41.40009],[2.17883,41.40096],[2.17951,41.40153]],[[2.14705,41.37712],[2.14595,41.37659],[2.145,41.37617]],[[2.18008,41.40188],[2.18177,41.40315],[2.18225,41.40349],[2.18451,41.40518],[2.18566,41.40606],[2.1862,41.40646]]]}},{"type":"Feature","properties":{"s":"st-passatge-de-conradi"},"geometry":{"type":"MultiLineString","coordinates":[[[2.17069,41.40368],[2.1715,41.40429]]]}},{"type":"Feature","properties":{"s":"st-carrer-de-corsega"},"geometry":{"type":"MultiLineString","coordinates":[[[2.14715,41.38734],[2.14375,41.38478],[2.14253,41.38407]],[[2.1494,41.38906],[2.15055,41.3899],[2.15167,41.39076],[2.15767,41.39528],[2.15862,41.3963]],[[2.1595,41.39652],[2.16039,41.39733],[2.16294,41.39926],[2.16468,41.40054],[2.16696,41.40227],[2.16977,41.40438],[2.17325,41.40702],[2.17438,41.40782],[2.17546,41.40865],[2.17658,41.40946],[2.17772,41.41032],[2.17887,41.41121]]]}},{"type":"Feature","properties":{"s":"st-passatge-de-corsega"},"geometry":{"type":"MultiLineString","coordinates":[[[2.17933,41.41002],[2.17831,41.41078]]]}},{"type":"Feature","properties":{"s":"st-passatge-de-costa"},"geometry":{"type":"MultiLineString","coordinates":[[[2.1731,41.41104],[2.17232,41.41165]]]}},{"type":"Feature","properties":{"s":"st-carrer-de-la-creu-dels-molers"},"geometry":{"type":"MultiLineString","coordinates":[[[2.16206,41.37497],[2.16202,41.37463],[2.16168,41.37372]]]}},{"type":"Feature","properties":{"s":"st-carrer-de-la-creu-coberta"},"geometry":{"type":"MultiLineString","coordinates":[[[2.1465,41.37518],[2.14738,41.37517],[2.14845,41.37516]]]}},{"type":"Feature","properties":{"s":"st-carrer-de-la-diputacio"},"geometry":{"type":"MultiLineString","coordinates":[[[2.18279,41.40238],[2.18228,41.40181],[2.18118,41.401],[2.17884,41.39922],[2.17656,41.39753],[2.17318,41.39498],[2.17203,41.39414],[2.1709,41.39327],[2.16975,41.39243],[2.16864,41.39157],[2.16705,41.39041],[2.16299,41.38732],[2.1596,41.38477],[2.15619,41.38223],[2.15054,41.37797],[2.14822,41.37625],[2.1478,41.37591],[2.14738,41.37517]]]}},{"type":"Feature","properties":{"s":"st-placa-del-doctor-ignasi-barraquer"},"geometry":{"type":"MultiLineString","coordinates":[[[2.14148,41.39082],[2.14231,41.3907],[2.14221,41.3903]]]}},{"type":"Feature","properties":{"s":"st-placa-del-doctor-letamendi"},"geometry":{"type":"MultiLineString","coordinates":[[[2.16128,41.38862],[2.16018,41.38862],[2.16018,41.38944],[2.16128,41.38945],[2.16128,41.38862]]]}},{"type":"Feature","properties":{"s":"st-passatge-de-domingo"},"geometry":{"type":"MultiLineString","coordinates":[[[2.16183,41.39326],[2.16296,41.3924]]]}},{"type":"Feature","properties":{"s":"st-carrer-del-dos-de-maig"},"geometry":{"type":"MultiLineString","coordinates":[[[2.18603,41.40405],[2.18451,41.40518],[2.17883,41.40947],[2.17658,41.41119],[2.17545,41.41203]]]}},{"type":"Feature","properties":{"s":"st-passatge-del-dos-de-maig"},"geometry":{"type":"MultiLineString","coordinates":[[[2.17603,41.41161],[2.17719,41.41249]]]}},{"type":"Feature","properties":{"s":"st-placa-del-dubte"},"geometry":{"type":"MultiLineString","coordinates":[[[2.16368,41.38018],[2.1639,41.3802],[2.16377,41.38036]]]}},{"type":"Feature","properties":{"s":"st-carrer-de-l-equador"},"geometry":{"type":"MultiLineString","coordinates":[[[2.14253,41.38407],[2.14151,41.38478],[2.14074,41.38535],[2.14029,41.38572]]]}},{"type":"Feature","properties":{"s":"st-carrer-d-elkano"},"geometry":{"type":"MultiLineString","coordinates":[[[2.15954,41.3742],[2.16168,41.37372],[2.16274,41.37327]]]}},{"type":"Feature","properties":{"s":"st-carrer-de-l-elisi"},"geometry":{"type":"MultiLineString","coordinates":[[[2.14483,41.37881],[2.14405,41.37838],[2.14323,41.37789]]]}},{"type":"Feature","properties":{"s":"st-carrer-dels-enamorats"},"geometry":{"type":"MultiLineString","coordinates":[[[2.18396,41.40733],[2.18311,41.40625],[2.18222,41.40519],[2.17979,41.40209],[2.17951,41.40153]]]}},{"type":"Feature","properties":{"s":"st-carrer-de-dolors-batlle-i-sunyer"},"geometry":{"type":"MultiLineString","coordinates":[[[2.14022,41.38217],[2.13998,41.38178],[2.14052,41.38092],[2.14074,41.38048]]]}},{"type":"Feature","properties":{"s":"st-carrer-d-enric-granados"},"geometry":{"type":"MultiLineString","coordinates":[[[2.16299,41.38732],[2.16128,41.38862]],[[2.16018,41.38944],[2.15395,41.39416],[2.15317,41.39493]]]}},{"type":"Feature","properties":{"s":"st-carrer-d-entenca"},"geometry":{"type":"MultiLineString","coordinates":[[[2.15512,41.37623],[2.15417,41.37692],[2.14375,41.38478],[2.14262,41.38549]],[[2.15643,41.37499],[2.15548,41.37593]],[[2.14263,41.38566],[2.14092,41.38703]]]}},{"type":"Feature","properties":{"s":"st-passatge-de-les-escoles"},"geometry":{"type":"MultiLineString","coordinates":[[[2.16789,41.39614],[2.16901,41.39526]]]}},{"type":"Feature","properties":{"s":"st-placa-d-espanya"},"geometry":{"type":"MultiLineString","coordinates":[[[2.14952,41.37534],[2.1497,41.375],[2.14939,41.37465],[2.14871,41.37473],[2.14845,41.37516],[2.14919,41.3755],[2.14952,41.37534]]]}},{"type":"Feature","properties":{"s":"st-carrer-d-espolsa-sacs"},"geometry":{"type":"MultiLineString","coordinates":[[[2.17344,41.38618],[2.1733,41.38639]]]}},{"type":"Feature","properties":{"s":"st-carrer-d-estruc"},"geometry":{"type":"MultiLineString","coordinates":[[[2.17192,41.38749],[2.17317,41.38648]]]}},{"type":"Feature","properties":{"s":"st-carrer-de-ferlandina"},"geometry":{"type":"MultiLineString","coordinates":[[[2.16528,41.38175],[2.16381,41.3816]]]}},{"type":"Feature","properties":{"s":"st-carrer-de-les-flors"},"geometry":{"type":"MultiLineString","coordinates":[[[2.16858,41.37587],[2.16683,41.37587]]]}},{"type":"Feature","properties":{"s":"st-carrer-de-floridablanca"},"geometry":{"type":"MultiLineString","coordinates":[[[2.15512,41.37623],[2.15548,41.37593],[2.15417,41.375]],[[2.16357,41.38232],[2.16321,41.38203],[2.16095,41.38033],[2.15755,41.37778],[2.15589,41.37649]]]}},{"type":"Feature","properties":{"s":"st-passatge-de-paula-font"},"geometry":{"type":"MultiLineString","coordinates":[[[2.17479,41.403],[2.17593,41.40216]]]}},{"type":"Feature","properties":{"s":"st-carrer-de-la-font-honrada"},"geometry":{"type":"MultiLineString","coordinates":[[[2.15579,41.37499],[2.15588,41.37428],[2.1559,41.37347]]]}},{"type":"Feature","properties":{"s":"st-carrer-d-en-fontrodona"},"geometry":{"type":"MultiLineString","coordinates":[[[2.16773,41.37496],[2.16765,41.37452],[2.16705,41.3732]]]}},{"type":"Feature","properties":{"s":"st-carrer-de-fontanella"},"geometry":{"type":"MultiLineString","coordinates":[[[2.17276,41.38846],[2.17225,41.3879],[2.17192,41.38749],[2.17153,41.38709]]]}},{"type":"Feature","properties":{"s":"st-carrer-del-davant-del-portal-nou"},"geometry":{"type":"MultiLineString","coordinates":[[[2.18096,41.38983],[2.1801,41.39012]]]}},{"type":"Feature","properties":{"s":"st-carrer-del-freser"},"geometry":{"type":"MultiLineString","coordinates":[[[2.17969,41.41061],[2.17933,41.41002],[2.17915,41.40967]]]}},{"type":"Feature","properties":{"s":"st-avinguda-de-gaudi"},"geometry":{"type":"MultiLineString","coordinates":[[[2.17444,41.40447],[2.17433,41.41118]]]}},{"type":"Feature","properties":{"s":"st-placa-de-gaudi"},"geometry":{"type":"MultiLineString","coordinates":[[[2.17556,41.40527],[2.17669,41.40444]]]}},{"type":"Feature","properties":{"s":"st-passatge-de-matilde-de-gaiola"},"geometry":{"type":"MultiLineString","coordinates":[[[2.17369,41.40142],[2.17256,41.40056]]]}},{"type":"Feature","properties":{"s":"st-carrer-de-gelabert"},"geometry":{"type":"MultiLineString","coordinates":[[[2.14322,41.38884],[2.14217,41.38813],[2.14192,41.38791]],[[2.14192,41.38791],[2.14162,41.38763],[2.14092,41.38703],[2.14297,41.38766],[2.14192,41.38791]]]}},{"type":"Feature","properties":{"s":"st-avinguda-de-pau-casals"},"geometry":{"type":"MultiLineString","coordinates":[[[2.14422,41.39303],[2.14397,41.39282],[2.14254,41.39356]]]}},{"type":"Feature","properties":{"s":"st-avinguda-diagonal"},"geometry":{"type":"MultiLineString","coordinates":[[[2.16483,41.39786],[2.16311,41.39745],[2.16242,41.39726]],[[2.16483,41.39786],[2.16523,41.39755],[2.16596,41.39816]],[[2.16483,41.39786],[2.16596,41.39816]],[[2.17165,41.39956],[2.17204,41.39925],[2.17258,41.39969]],[[2.17165,41.39956],[2.17258,41.39969]],[[2.17165,41.39956],[2.16926,41.39894],[2.16652,41.39831],[2.16596,41.39816]],[[2.16185,41.39672],[2.16242,41.39726]],[[2.17499,41.4004],[2.17317,41.40009],[2.17258,41.39969]],[[2.17499,41.4004],[2.17659,41.40092]],[[2.17499,41.4004],[2.17543,41.40007],[2.17612,41.40056],[2.17659,41.40092]],[[2.17659,41.40092],[2.17845,41.40126],[2.17951,41.40153],[2.18026,41.40174],[2.18183,41.40214],[2.1835,41.40255],[2.18586,41.40261]],[[2.14498,41.39286],[2.16242,41.39726]],[[2.14251,41.39212],[2.14406,41.39253]]]}},{"type":"Feature","properties":{"s":"st-carrer-de-girona"},"geometry":{"type":"MultiLineString","coordinates":[[[2.17684,41.3905],[2.17568,41.39139],[2.17328,41.39318],[2.17091,41.39499],[2.16524,41.39927],[2.16409,41.4001]]]}},{"type":"Feature","properties":{"s":"st-placa-de-les-glories-catalanes"},"geometry":{"type":"MultiLineString","coordinates":[[[2.18799,41.4043],[2.1869,41.40444],[2.18603,41.40405],[2.18586,41.40261],[2.18693,41.40234],[2.18778,41.40272]]]}},{"type":"Feature","properties":{"s":"st-placa-de-goya"},"geometry":{"type":"MultiLineString","coordinates":[[[2.16383,41.38417],[2.1632,41.38375],[2.16372,41.38337],[2.16383,41.38417]]]}},{"type":"Feature","properties":{"s":"st-passeig-de-gracia"},"geometry":{"type":"MultiLineString","coordinates":[[[2.1595,41.39652],[2.15854,41.39751],[2.15767,41.39779],[2.1595,41.39652]],[[2.1595,41.39652],[2.17008,41.38795]]]}},{"type":"Feature","properties":{"s":"st-carrer-de-grases"},"geometry":{"type":"MultiLineString","coordinates":[[[2.15668,41.37362],[2.15667,41.37348]]]}},{"type":"Feature","properties":{"s":"st-carrer-d-en-grassot"},"geometry":{"type":"MultiLineString","coordinates":[[[2.16923,41.40227],[2.16809,41.40312]]]}},{"type":"Feature","properties":{"s":"st-carrer-de-gravina"},"geometry":{"type":"MultiLineString","coordinates":[[[2.16581,41.38583],[2.16567,41.38505]]]}},{"type":"Feature","properties":{"s":"st-placa-de-pablo-neruda"},"geometry":{"type":"MultiLineString","coordinates":[[[2.17659,41.40092],[2.17845,41.40126]]]}},{"type":"Feature","properties":{"s":"st-passatge-de-l-hort-dels-velluters"},"geometry":{"type":"MultiLineString","coordinates":[[[2.17991,41.38982],[2.17898,41.38979]]]}},{"type":"Feature","properties":{"s":"st-carrer-de-l-hort-de-la-bomba"},"geometry":{"type":"MultiLineString","coordinates":[[[2.16823,41.37693],[2.16788,41.3765]]]}},{"type":"Feature","properties":{"s":"st-passatge-de-la-igualtat"},"geometry":{"type":"MultiLineString","coordinates":[[[2.17601,41.4099],[2.17647,41.41024]]]}},{"type":"Feature","properties":{"s":"st-carrer-de-la-independencia"},"geometry":{"type":"MultiLineString","coordinates":[[[2.17663,41.41291],[2.17773,41.4121],[2.17887,41.41121],[2.17969,41.41061],[2.1801,41.41028],[2.18122,41.40943],[2.18287,41.40817],[2.18341,41.40778],[2.18396,41.40733],[2.18452,41.40691],[2.18566,41.40606],[2.18685,41.4054]]]}},{"type":"Feature","properties":{"s":"st-passatge-de-la-independencia"},"geometry":{"type":"MultiLineString","coordinates":[[[2.17714,41.41076],[2.17832,41.41163]]]}},{"type":"Feature","properties":{"s":"st-carrer-de-la-industria"},"geometry":{"type":"MultiLineString","coordinates":[[[2.16415,41.40181],[2.16528,41.40265],[2.16584,41.4031]],[[2.16866,41.40522],[2.17215,41.40786],[2.17436,41.4095],[2.17658,41.41119],[2.17806,41.41237]]]}},{"type":"Feature","properties":{"s":"st-passatge-de-graziella-pareto"},"geometry":{"type":"MultiLineString","coordinates":[[[2.17806,41.41237],[2.17859,41.41197]]]}},{"type":"Feature","properties":{"s":"st-avinguda-de-josep-tarradellas"},"geometry":{"type":"MultiLineString","coordinates":[[[2.14435,41.39237],[2.14396,41.39142],[2.14364,41.3905],[2.14322,41.38884],[2.14286,41.38716],[2.14263,41.38566],[2.14241,41.3824],[2.14252,41.38061]]]}},{"type":"Feature","properties":{"s":"st-carrer-de-jaume-fabra"},"geometry":{"type":"MultiLineString","coordinates":[[[2.16037,41.37498],[2.15954,41.3742]]]}},{"type":"Feature","properties":{"s":"st-carrer-de-joaquin-costa"},"geometry":{"type":"MultiLineString","coordinates":[[[2.16383,41.38417],[2.16451,41.38373],[2.1656,41.38271]]]}},{"type":"Feature","properties":{"s":"st-gran-via-de-les-corts-catalanes"},"geometry":{"type":"MultiLineString","coordinates":[[[2.14952,41.37534],[2.1529,41.37787],[2.15403,41.37874],[2.1597,41.38298],[2.16082,41.38383],[2.16414,41.38631],[2.16535,41.38724],[2.16827,41.38942],[2.1699,41.39064],[2.17099,41.39148],[2.17217,41.39234],[2.17893,41.39743],[2.1812,41.39911],[2.18243,41.40007],[2.18586,41.40261]]]}},{"type":"Feature","properties":{"s":"st-placa-de-josep-m-folch-i-torres"},"geometry":{"type":"MultiLineString","coordinates":[[[2.1661,41.3764],[2.16687,41.3771],[2.16744,41.37676],[2.16657,41.37605]]]}},{"type":"Feature","properties":{"s":"st-carrer-de-jovellanos"},"geometry":{"type":"MultiLineString","coordinates":[[[2.16807,41.38484],[2.16771,41.38567]]]}},{"type":"Feature","properties":{"s":"st-carrer-de-joan-d-austria"},"geometry":{"type":"MultiLineString","coordinates":[[[2.18698,41.39649],[2.18811,41.39566],[2.18918,41.39482]]]}},{"type":"Feature","properties":{"s":"st-passatge-de-joan-casas"},"geometry":{"type":"MultiLineString","coordinates":[[[2.18279,41.40238],[2.18177,41.40315]]]}},{"type":"Feature","properties":{"s":"st-carrer-de-jonqueres"},"geometry":{"type":"MultiLineString","coordinates":[[[2.17373,41.38895],[2.17431,41.38776],[2.17432,41.38729]]]}},{"type":"Feature","properties":{"s":"st-carrer-de-roger-de-lluria"},"geometry":{"type":"MultiLineString","coordinates":[[[2.16184,41.39841],[2.16525,41.39585],[2.16637,41.39498],[2.16751,41.39414],[2.17099,41.39148],[2.17227,41.39055],[2.17341,41.38969]]]}},{"type":"Feature","properties":{"s":"st-via-laietana"},"geometry":{"type":"MultiLineString","coordinates":[[[2.17432,41.38729],[2.17276,41.38846]]]}},{"type":"Feature","properties":{"s":"st-carrer-de-la-lleialtat"},"geometry":{"type":"MultiLineString","coordinates":[[[2.1673,41.37751],[2.1661,41.3764]]]}},{"type":"Feature","properties":{"s":"st-carrer-del-lleo"},"geometry":{"type":"MultiLineString","coordinates":[[[2.16528,41.38175],[2.16427,41.3828]]]}},{"type":"Feature","properties":{"s":"st-passatge-de-leon"},"geometry":{"type":"MultiLineString","coordinates":[[[2.17813,41.40829],[2.17745,41.40778]]]}},{"type":"Feature","properties":{"s":"st-carrer-de-lepant"},"geometry":{"type":"MultiLineString","coordinates":[[[2.16979,41.40972],[2.17102,41.40871],[2.17556,41.40527],[2.17669,41.40444],[2.17825,41.40324],[2.17895,41.40274],[2.18026,41.40174],[2.18118,41.401],[2.18243,41.40007],[2.18595,41.39739],[2.18699,41.39666]]]}},{"type":"Feature","properties":{"s":"st-carrer-de-lleida"},"geometry":{"type":"MultiLineString","coordinates":[[[2.15417,41.375],[2.1546,41.37388],[2.15482,41.37352]]]}},{"type":"Feature","properties":{"s":"st-carrer-de-la-llibertat"},"geometry":{"type":"MultiLineString","coordinates":[[[2.16052,41.39919],[2.16097,41.3995],[2.16272,41.40078]]]}},{"type":"Feature","properties":{"s":"st-carrer-de-londres"},"geometry":{"type":"MultiLineString","coordinates":[[[2.15243,41.39474],[2.14425,41.38855],[2.14376,41.38819],[2.14297,41.38766]]]}},{"type":"Feature","properties":{"s":"st-carrer-de-loreto"},"geometry":{"type":"MultiLineString","coordinates":[[[2.14169,41.38842],[2.14199,41.3894]],[[2.14199,41.3894],[2.14231,41.3907],[2.14251,41.39212]],[[2.14199,41.3894],[2.14111,41.38956]]]}},{"type":"Feature","properties":{"s":"st-carrer-de-lluis-el-piados"},"geometry":{"type":"MultiLineString","coordinates":[[[2.17846,41.39052],[2.17898,41.38979]]]}},{"type":"Feature","properties":{"s":"st-passatge-de-lluis-pellicer"},"geometry":{"type":"MultiLineString","coordinates":[[[2.14904,41.39275],[2.15017,41.3936]]]}},{"type":"Feature","properties":{"s":"st-carrer-de-lluis-vives"},"geometry":{"type":"MultiLineString","coordinates":[[[2.1623,41.40048],[2.16301,41.39992]]]}},{"type":"Feature","properties":{"s":"st-carrer-de-llanca"},"geometry":{"type":"MultiLineString","coordinates":[[[2.1494,41.37712],[2.15065,41.37618],[2.1519,41.375]],[[2.14715,41.37883],[2.14435,41.38092]]]}},{"type":"Feature","properties":{"s":"st-carrer-de-mallorca"},"geometry":{"type":"MultiLineString","coordinates":[[[2.14372,41.37963],[2.14319,41.37923],[2.14241,41.37868]],[[2.17431,41.40264],[2.17558,41.40362],[2.17777,41.40525],[2.17889,41.40607],[2.18112,41.40775],[2.18228,41.40863]],[[2.17317,41.40179],[2.17091,41.40012],[2.16994,41.39912]],[[2.14761,41.38241],[2.14828,41.38308],[2.15169,41.38564],[2.1528,41.38649],[2.16271,41.39392],[2.16411,41.39501],[2.16751,41.39757],[2.16865,41.3984],[2.16926,41.39894]]]}},{"type":"Feature","properties":{"s":"st-carrer-de-manso"},"geometry":{"type":"MultiLineString","coordinates":[[[2.16314,41.37867],[2.16206,41.37777],[2.1598,41.37607],[2.15869,41.37498]]]}},{"type":"Feature","properties":{"s":"st-carrer-de-margarit"},"geometry":{"type":"MultiLineString","coordinates":[[[2.164,41.37497],[2.16369,41.37399]]]}},{"type":"Feature","properties":{"s":"st-passatge-de-marimon"},"geometry":{"type":"MultiLineString","coordinates":[[[2.14875,41.39381],[2.14748,41.39479]]]}},{"type":"Feature","properties":{"s":"st-carrer-de-la-marina"},"geometry":{"type":"MultiLineString","coordinates":[[[2.16923,41.40847],[2.16993,41.4079],[2.17219,41.40622],[2.17332,41.40533],[2.17389,41.40491],[2.17444,41.40447],[2.17671,41.40275],[2.17783,41.40187],[2.17845,41.40126],[2.17995,41.40006],[2.18687,41.39476],[2.18795,41.39395]]]}},{"type":"Feature","properties":{"s":"st-passatge-de-mariner"},"geometry":{"type":"MultiLineString","coordinates":[[[2.16923,41.4031],[2.17035,41.40394]]]}},{"type":"Feature","properties":{"s":"st-carrer-del-marques-de-campo-sagrado"},"geometry":{"type":"MultiLineString","coordinates":[[[2.16544,41.3769],[2.16433,41.37607],[2.1632,41.37497]]]}},{"type":"Feature","properties":{"s":"st-avinguda-del-parallel"},"geometry":{"type":"MultiLineString","coordinates":[[[2.16773,41.37496],[2.16765,41.37452],[2.16744,41.37459]],[[2.16773,41.37496],[2.16979,41.37498],[2.17,41.37497]],[[2.16773,41.37496],[2.16676,41.37495],[2.16517,41.37497],[2.1497,41.375]]]}},{"type":"Feature","properties":{"s":"st-carrer-del-marques-de-sentmenat"},"geometry":{"type":"MultiLineString","coordinates":[[[2.14262,41.38549],[2.142,41.38536],[2.14024,41.38535]]]}},{"type":"Feature","properties":{"s":"st-passeig-de-picasso"},"geometry":{"type":"MultiLineString","coordinates":[[[2.18138,41.38989],[2.18136,41.38969]]]}},{"type":"Feature","properties":{"s":"st-passatge-de-maiol"},"geometry":{"type":"MultiLineString","coordinates":[[[2.17384,41.40231],[2.17496,41.40144]]]}},{"type":"Feature","properties":{"s":"st-carrer-de-sant-pere-mitja"},"geometry":{"type":"MultiLineString","coordinates":[[[2.17897,41.38927],[2.17847,41.38874],[2.17743,41.38789],[2.17716,41.38764]]]}},{"type":"Feature","properties":{"s":"st-carrer-de-mendez-nunez"},"geometry":{"type":"MultiLineString","coordinates":[[[2.17843,41.3893],[2.17684,41.3905]]]}},{"type":"Feature","properties":{"s":"st-passatge-de-mendez-vigo"},"geometry":{"type":"MultiLineString","coordinates":[[[2.16699,41.39374],[2.16812,41.3929]]]}},{"type":"Feature","properties":{"s":"st-carrer-del-torrent-de-l-olla"},"geometry":{"type":"MultiLineString","coordinates":[[[2.16158,41.39822],[2.16052,41.39919]]]}},{"type":"Feature","properties":{"s":"st-passatge-de-mercader"},"geometry":{"type":"MultiLineString","coordinates":[[[2.15921,41.39298],[2.16035,41.39215]]]}},{"type":"Feature","properties":{"s":"st-passatge-del-mercat"},"geometry":{"type":"MultiLineString","coordinates":[[[2.16826,41.39641],[2.16937,41.39555]]]}},{"type":"Feature","properties":{"s":"st-passatge-de-valeri-serra"},"geometry":{"type":"MultiLineString","coordinates":[[[2.1614,41.38427],[2.15901,41.38605]]]}},{"type":"Feature","properties":{"s":"st-avinguda-meridiana"},"geometry":{"type":"MultiLineString","coordinates":[[[2.18687,41.39476],[2.18699,41.39666],[2.18692,41.39839],[2.18697,41.4016],[2.18693,41.40234]],[[2.18687,41.39476],[2.18687,41.39313]],[[2.18687,41.39476],[2.18656,41.39452]],[[2.18685,41.4054],[2.1869,41.40444]]]}},{"type":"Feature","properties":{"s":"st-carrer-de-mila-i-fontanals"},"geometry":{"type":"MultiLineString","coordinates":[[[2.16409,41.4001],[2.16357,41.40037],[2.16272,41.40078]]]}},{"type":"Feature","properties":{"s":"st-carrer-de-minerva"},"geometry":{"type":"MultiLineString","coordinates":[[[2.15687,41.39586],[2.15611,41.39677],[2.15571,41.39713]]]}},{"type":"Feature","properties":{"s":"st-carrer-de-mir-geribert"},"geometry":{"type":"MultiLineString","coordinates":[[[2.14738,41.37517],[2.14732,41.37447]]]}},{"type":"Feature","properties":{"s":"st-avinguda-de-mistral"},"geometry":{"type":"MultiLineString","coordinates":[[[2.15982,41.37778],[2.15833,41.37718],[2.15672,41.3767],[2.15589,41.37649],[2.15512,41.37623],[2.15351,41.37573],[2.1519,41.375]]]}},{"type":"Feature","properties":{"s":"st-carrer-de-les-moles"},"geometry":{"type":"MultiLineString","coordinates":[[[2.17225,41.3879],[2.17351,41.38657]]]}},{"type":"Feature","properties":{"s":"st-carrer-d-en-monec"},"geometry":{"type":"MultiLineString","coordinates":[[[2.17728,41.38879],[2.17797,41.38833]]]}},{"type":"Feature","properties":{"s":"st-carrer-de-monistrol"},"geometry":{"type":"MultiLineString","coordinates":[[[2.16272,41.40078],[2.16397,41.40194]]]}},{"type":"Feature","properties":{"s":"st-carrer-de-moia"},"geometry":{"type":"MultiLineString","coordinates":[[[2.15131,41.39446],[2.15233,41.39566]]]}},{"type":"Feature","properties":{"s":"st-carrer-de-muntaner"},"geometry":{"type":"MultiLineString","coordinates":[[[2.16372,41.38337],[2.16072,41.38562],[2.14809,41.39517]]]}},{"type":"Feature","properties":{"s":"st-carrer-de-napols"},"geometry":{"type":"MultiLineString","coordinates":[[[2.16864,41.40353],[2.16923,41.4031],[2.16977,41.40267],[2.17543,41.39838],[2.17782,41.39659],[2.17905,41.39563],[2.18134,41.39392],[2.18148,41.39375],[2.18235,41.39297],[2.18354,41.39229],[2.18457,41.39146]]]}},{"type":"Feature","properties":{"s":"st-placa-de-narcis-oller"},"geometry":{"type":"MultiLineString","coordinates":[[[2.15497,41.39674],[2.15528,41.3971],[2.15555,41.39727],[2.15571,41.39713]]]}},{"type":"Feature","properties":{"s":"st-placa-de-las-navas"},"geometry":{"type":"MultiLineString","coordinates":[[[2.15869,41.37366],[2.15905,41.37368],[2.15954,41.3742],[2.159,41.37433],[2.15869,41.37366]]]}},{"type":"Feature","properties":{"s":"st-carrer-de-nicaragua"},"geometry":{"type":"MultiLineString","coordinates":[[[2.14435,41.38092],[2.14241,41.3824],[2.14035,41.38394]]]}},{"type":"Feature","properties":{"s":"st-passatge-de-nogues"},"geometry":{"type":"MultiLineString","coordinates":[[[2.16719,41.40721],[2.16658,41.40775]]]}},{"type":"Feature","properties":{"s":"st-carrer-nou-de-dulce"},"geometry":{"type":"MultiLineString","coordinates":[[[2.16402,41.38038],[2.16388,41.38126]]]}},{"type":"Feature","properties":{"s":"st-carrer-de-numancia"},"geometry":{"type":"MultiLineString","coordinates":[[[2.14252,41.38061],[2.14022,41.38217]]]}},{"type":"Feature","properties":{"s":"st-passatge-de-nuria"},"geometry":{"type":"MultiLineString","coordinates":[[[2.17592,41.41069],[2.17548,41.41101]],[[2.17548,41.41101],[2.17569,41.41118]],[[2.17548,41.41101],[2.17529,41.41087]]]}},{"type":"Feature","properties":{"s":"st-carrer-del-bisbe-laguarda"},"geometry":{"type":"MultiLineString","coordinates":[[[2.16542,41.37935],[2.16458,41.3804]]]}},{"type":"Feature","properties":{"s":"st-placa-d-urquinaona"},"geometry":{"type":"MultiLineString","coordinates":[[[2.1723,41.3888],[2.17384,41.38936]],[[2.1723,41.3888],[2.17215,41.38892],[2.17341,41.38969],[2.17384,41.38936]],[[2.1723,41.3888],[2.17276,41.38846],[2.17373,41.38895],[2.17384,41.38936]]]}},{"type":"Feature","properties":{"s":"st-carrer-de-l-olivera"},"geometry":{"type":"MultiLineString","coordinates":[[[2.15668,41.37362],[2.15869,41.37366]],[[2.1559,41.37361],[2.15482,41.37352]],[[2.15905,41.37368],[2.16,41.37323]]]}},{"type":"Feature","properties":{"s":"st-carrer-d-ortigosa"},"geometry":{"type":"MultiLineString","coordinates":[[[2.17588,41.38894],[2.17431,41.38776]]]}},{"type":"Feature","properties":{"s":"st-passatge-de-pau-hernandez"},"geometry":{"type":"MultiLineString","coordinates":[[[2.17755,41.40785],[2.17781,41.40765]],[[2.17781,41.40765],[2.17787,41.40809]],[[2.17781,41.40765],[2.17776,41.40742]]]}},{"type":"Feature","properties":{"s":"st-carrer-de-padilla"},"geometry":{"type":"MultiLineString","coordinates":[[[2.17082,41.41054],[2.17324,41.40867],[2.17438,41.40782],[2.17662,41.4061],[2.17777,41.40525],[2.18113,41.40267],[2.18351,41.40087],[2.18438,41.40029],[2.18593,41.39911],[2.18692,41.39839]]]}},{"type":"Feature","properties":{"s":"st-carrer-del-pare-lainez"},"geometry":{"type":"MultiLineString","coordinates":[[[2.16713,41.40809],[2.16658,41.40775]]]}},{"type":"Feature","properties":{"s":"st-passatge-de-pages"},"geometry":{"type":"MultiLineString","coordinates":[[[2.17705,41.39716],[2.17826,41.39795]]]}},{"type":"Feature","properties":{"s":"st-carrer-de-la-paloma"},"geometry":{"type":"MultiLineString","coordinates":[[[2.1656,41.38271],[2.16437,41.38202],[2.16351,41.3818]]]}},{"type":"Feature","properties":{"s":"st-carrer-de-pallars"},"geometry":{"type":"MultiLineString","coordinates":[[[2.18918,41.39482],[2.18795,41.39395]]]}},{"type":"Feature","properties":{"s":"st-carrer-de-pamplona"},"geometry":{"type":"MultiLineString","coordinates":[[[2.18814,41.39905],[2.18695,41.39989]]]}},{"type":"Feature","properties":{"s":"st-carrer-de-paris"},"geometry":{"type":"MultiLineString","coordinates":[[[2.15509,41.39503],[2.14377,41.38648],[2.14263,41.38566]],[[2.15509,41.39503],[2.15571,41.39556],[2.15471,41.39531],[2.15509,41.39503]]]}},{"type":"Feature","properties":{"s":"st-passatge-de-paris"},"geometry":{"type":"MultiLineString","coordinates":[[[2.17599,41.41075],[2.17648,41.41039]]]}},{"type":"Feature","properties":{"s":"st-carrer-del-parlament"},"geometry":{"type":"MultiLineString","coordinates":[[[2.16434,41.37777],[2.16208,41.37607],[2.16093,41.37498]]]}},{"type":"Feature","properties":{"s":"st-passatge-de-pere-calders"},"geometry":{"type":"MultiLineString","coordinates":[[[2.16223,41.37666],[2.16302,41.37605]]]}},{"type":"Feature","properties":{"s":"st-passatge-del-rector-oliveras"},"geometry":{"type":"MultiLineString","coordinates":[[[2.16805,41.39454],[2.16742,41.39502]]]}},{"type":"Feature","properties":{"s":"st-carrer-del-rector-triado"},"geometry":{"type":"MultiLineString","coordinates":[[[2.14181,41.37924],[2.145,41.37617]]]}},{"type":"Feature","properties":{"s":"st-carrer-de-pau-claris"},"geometry":{"type":"MultiLineString","coordinates":[[[2.1608,41.39763],[2.16146,41.39701],[2.16185,41.39672],[2.16298,41.39587],[2.16638,41.39327],[2.16751,41.39244],[2.16864,41.39157],[2.1699,41.39064],[2.17215,41.38892]]]}},{"type":"Feature","properties":{"s":"st-carrer-de-pelai"},"geometry":{"type":"MultiLineString","coordinates":[[[2.17009,41.38549],[2.16771,41.38567],[2.16581,41.38583],[2.16466,41.3859]]]}},{"type":"Feature","properties":{"s":"st-carrer-del-perill"},"geometry":{"type":"MultiLineString","coordinates":[[[2.16077,41.39896],[2.16203,41.3998],[2.16261,41.40023],[2.16308,41.40061]]]}},{"type":"Feature","properties":{"s":"st-passatge-de-permanyer"},"geometry":{"type":"MultiLineString","coordinates":[[[2.1692,41.39285],[2.16807,41.39201]]]}},{"type":"Feature","properties":{"s":"st-placa-del-pes-de-la-palla"},"geometry":{"type":"MultiLineString","coordinates":[[[2.16388,41.38126],[2.16381,41.3816],[2.16351,41.3818]]]}},{"type":"Feature","properties":{"s":"st-carrer-de-piquer"},"geometry":{"type":"MultiLineString","coordinates":[[[2.16843,41.37344],[2.16731,41.37378]]]}},{"type":"Feature","properties":{"s":"st-passatge-de-pla"},"geometry":{"type":"MultiLineString","coordinates":[[[2.16805,41.39543],[2.16842,41.39572]],[[2.16919,41.39629],[2.16881,41.39599]]]}},{"type":"Feature","properties":{"s":"st-carrer-del-poeta-cabanyes"},"geometry":{"type":"MultiLineString","coordinates":[[[2.1661,41.37496],[2.16513,41.37344]]]}},{"type":"Feature","properties":{"s":"st-carrer-de-l-avenir"},"geometry":{"type":"MultiLineString","coordinates":[[[2.1446,41.3945],[2.1441,41.3942]]]}},{"type":"Feature","properties":{"s":"st-carrer-del-princep-jordi"},"geometry":{"type":"MultiLineString","coordinates":[[[2.14822,41.37625],[2.14623,41.37589]]]}},{"type":"Feature","properties":{"s":"st-carrer-del-princep-de-viana"},"geometry":{"type":"MultiLineString","coordinates":[[[2.16387,41.3789],[2.16367,41.38035]]]}},{"type":"Feature","properties":{"s":"st-carrer-de-provenca"},"geometry":{"type":"MultiLineString","coordinates":[[[2.16652,41.39831],[2.1675,41.39926],[2.16979,41.40097],[2.17093,41.40179],[2.17205,41.40264]],[[2.14291,41.38025],[2.14252,41.38061],[2.14378,41.38137],[2.15055,41.38648],[2.15225,41.38774],[2.15281,41.38818],[2.15397,41.38902],[2.15921,41.39298],[2.15998,41.3936],[2.1616,41.39482],[2.16298,41.39587],[2.16523,41.39755],[2.16596,41.39816]],[[2.17319,41.40349],[2.17444,41.40447],[2.17556,41.40527],[2.17662,41.4061],[2.17797,41.40708],[2.17885,41.40774],[2.18122,41.40943]]]}},{"type":"Feature","properties":{"s":"st-passatge-de-prunera"},"geometry":{"type":"MultiLineString","coordinates":[[[2.15694,41.37398],[2.15588,41.37428]]]}},{"type":"Feature","properties":{"s":"st-avinguda-del-portal-de-l-angel"},"geometry":{"type":"MultiLineString","coordinates":[[[2.17132,41.38694],[2.17239,41.38613]]]}},{"type":"Feature","properties":{"s":"st-carrer-de-radas"},"geometry":{"type":"MultiLineString","coordinates":[[[2.16147,41.37497],[2.16123,41.37453],[2.16102,41.37387]]]}},{"type":"Feature","properties":{"s":"st-carrer-de-les-ramelleres"},"geometry":{"type":"MultiLineString","coordinates":[[[2.16807,41.38484],[2.16864,41.38426],[2.16932,41.38379]]]}},{"type":"Feature","properties":{"s":"st-carrer-de-ramon-mas"},"geometry":{"type":"MultiLineString","coordinates":[[[2.17432,41.38729],[2.17482,41.38758]]]}},{"type":"Feature","properties":{"s":"st-carrer-del-rec-comtal"},"geometry":{"type":"MultiLineString","coordinates":[[[2.18043,41.3906],[2.1801,41.39012],[2.17959,41.38924],[2.17952,41.38916]]]}},{"type":"Feature","properties":{"s":"st-carrer-de-la-reina-amalia"},"geometry":{"type":"MultiLineString","coordinates":[[[2.16872,41.37598],[2.16525,41.3781]]]}},{"type":"Feature","properties":{"s":"st-carrer-de-requesens"},"geometry":{"type":"MultiLineString","coordinates":[[[2.16376,41.37963],[2.16421,41.37982]]]}},{"type":"Feature","properties":{"s":"st-carrer-de-ribes"},"geometry":{"type":"MultiLineString","coordinates":[[[2.18109,41.39239],[2.18148,41.39375]],[[2.18155,41.39409],[2.1819,41.39518],[2.18272,41.39795],[2.1837,41.3991],[2.18499,41.4014]]]}},{"type":"Feature","properties":{"s":"st-carrer-de-ricart"},"geometry":{"type":"MultiLineString","coordinates":[[[2.15869,41.37498],[2.15802,41.37366]]]}},{"type":"Feature","properties":{"s":"st-carrer-de-la-riera-alta"},"geometry":{"type":"MultiLineString","coordinates":[[[2.16555,41.38045],[2.16331,41.38034]]]}},{"type":"Feature","properties":{"s":"st-carrer-de-la-riera-de-sant-miquel"},"geometry":{"type":"MultiLineString","coordinates":[[[2.15862,41.3963],[2.15716,41.39745]]]}},{"type":"Feature","properties":{"s":"st-carrer-de-rita-bonnat"},"geometry":{"type":"MultiLineString","coordinates":[[[2.14331,41.38922],[2.14199,41.3894]]]}},{"type":"Feature","properties":{"s":"st-carrer-de-rivadeneyra"},"geometry":{"type":"MultiLineString","coordinates":[[[2.17106,41.38558],[2.17042,41.38588]]]}},{"type":"Feature","properties":{"s":"st-carrer-de-rocafort"},"geometry":{"type":"MultiLineString","coordinates":[[[2.15869,41.37498],[2.15756,41.37607],[2.14942,41.38223],[2.14377,41.38648],[2.14286,41.38716]]]}},{"type":"Feature","properties":{"s":"st-carrer-de-roger-de-flor"},"geometry":{"type":"MultiLineString","coordinates":[[[2.18345,41.39061],[2.18235,41.39142],[2.17797,41.39479],[2.17668,41.39574],[2.17431,41.39755],[2.17204,41.39925],[2.16754,41.40269]]]}},{"type":"Feature","properties":{"s":"st-passatge-de-roger-de-flor"},"geometry":{"type":"MultiLineString","coordinates":[[[2.16913,41.40147],[2.16972,41.40191]]]}},{"type":"Feature","properties":{"s":"st-avinguda-de-roma"},"geometry":{"type":"MultiLineString","coordinates":[[[2.15055,41.38308],[2.15153,41.38403]],[[2.15153,41.38403],[2.153,41.38464],[2.15584,41.38591],[2.15734,41.38647],[2.15804,41.387]],[[2.15153,41.38403],[2.14864,41.38281],[2.14761,41.38241],[2.14719,41.38219],[2.14576,41.38158],[2.14291,41.38025],[2.14181,41.37924]]]}},{"type":"Feature","properties":{"s":"st-passatge-de-romul-bosch"},"geometry":{"type":"MultiLineString","coordinates":[[[2.16161,41.39876],[2.16227,41.39924]]]}},{"type":"Feature","properties":{"s":"st-carrer-de-rosalia-de-castro"},"geometry":{"type":"MultiLineString","coordinates":[[[2.17025,41.4101],[2.17082,41.41054],[2.17303,41.41218]],[[2.16979,41.40972],[2.17016,41.40998]]]}},{"type":"Feature","properties":{"s":"st-carrer-del-rossello"},"geometry":{"type":"MultiLineString","coordinates":[[[2.15168,41.38904],[2.14489,41.38392],[2.14241,41.3824]],[[2.15303,41.39004],[2.15885,41.39443],[2.1605,41.39571],[2.16185,41.39672],[2.16242,41.39726]],[[2.16311,41.39745],[2.16348,41.39794],[2.16407,41.39841],[2.1675,41.40096],[2.16923,41.40227],[2.17092,41.40351],[2.17332,41.40533],[2.17442,41.40614]],[[2.1801,41.41028],[2.17883,41.40947],[2.1755,41.40696],[2.17442,41.4062]]]}},{"type":"Feature","properties":{"s":"st-placa-de-la-sagrada-familia"},"geometry":{"type":"MultiLineString","coordinates":[[[2.17205,41.40264],[2.17319,41.40349],[2.17431,41.40264],[2.17384,41.40231],[2.17317,41.40179],[2.17205,41.40264]]]}},{"type":"Feature","properties":{"s":"st-passatge-d-en-sagrista"},"geometry":{"type":"MultiLineString","coordinates":[[[2.14425,41.38855],[2.14539,41.3877]]]}},{"type":"Feature","properties":{"s":"st-carrer-de-sagues"},"geometry":{"type":"MultiLineString","coordinates":[[[2.14571,41.39363],[2.1446,41.3945]]]}},{"type":"Feature","properties":{"s":"st-carrer-de-salva"},"geometry":{"type":"MultiLineString","coordinates":[[[2.16578,41.37319],[2.16676,41.37495]]]}},{"type":"Feature","properties":{"s":"st-carrer-dels-salvador"},"geometry":{"type":"MultiLineString","coordinates":[[[2.16514,41.378],[2.1643,41.37902]]]}},{"type":"Feature","properties":{"s":"st-carrer-de-sant-agusti"},"geometry":{"type":"MultiLineString","coordinates":[[[2.16119,41.39793],[2.16035,41.39868]]]}},{"type":"Feature","properties":{"s":"st-passeig-de-sant-antoni"},"geometry":{"type":"MultiLineString","coordinates":[[[2.14291,41.38025],[2.14181,41.37924],[2.14174,41.37913]]]}},{"type":"Feature","properties":{"s":"st-ronda-de-sant-antoni"},"geometry":{"type":"MultiLineString","coordinates":[[[2.16314,41.37867],[2.16336,41.38075],[2.16383,41.38417],[2.16395,41.38525]]]}},{"type":"Feature","properties":{"s":"st-carrer-de-sant-antoni-abat"},"geometry":{"type":"MultiLineString","coordinates":[[[2.16542,41.37935],[2.16507,41.37923],[2.16474,41.37913],[2.1643,41.37902],[2.16387,41.3789],[2.16314,41.37867]]]}},{"type":"Feature","properties":{"s":"st-passatge-de-sant-antoni-abat"},"geometry":{"type":"MultiLineString","coordinates":[[[2.16144,41.37995],[2.16032,41.37911]]]}},{"type":"Feature","properties":{"s":"st-carrer-de-sant-antoni-maria-claret"},"geometry":{"type":"MultiLineString","coordinates":[[[2.17663,41.41291],[2.17323,41.41036],[2.1721,41.40954],[2.17102,41.40871],[2.16993,41.4079],[2.16753,41.40609]]]}},{"type":"Feature","properties":{"s":"st-passatge-de-sant-benet"},"geometry":{"type":"MultiLineString","coordinates":[[[2.1791,41.39076],[2.17937,41.39036]],[[2.17874,41.39012],[2.17937,41.39036]],[[2.17937,41.39036],[2.17967,41.39048]]]}},{"type":"Feature","properties":{"s":"st-passatge-de-sant-bernat"},"geometry":{"type":"MultiLineString","coordinates":[[[2.16475,41.38441],[2.16457,41.38378],[2.16451,41.38373]]]}},{"type":"Feature","properties":{"s":"st-carrero-de-sant-bonaventura"},"geometry":{"type":"MultiLineString","coordinates":[[[2.17159,41.38539],[2.17176,41.38519]]]}},{"type":"Feature","properties":{"s":"st-carrer-d-en-santcliment"},"geometry":{"type":"MultiLineString","coordinates":[[[2.16552,41.37839],[2.16507,41.37923]]]}},{"type":"Feature","properties":{"s":"st-carrer-de-sant-erasme"},"geometry":{"type":"MultiLineString","coordinates":[[[2.16388,41.38126],[2.16492,41.38134]]]}},{"type":"Feature","properties":{"s":"st-carrer-del-palau-de-la-musica"},"geometry":{"type":"MultiLineString","coordinates":[[[2.17482,41.38758],[2.1752,41.38721]]]}},{"type":"Feature","properties":{"s":"st-carrer-de-sant-gil"},"geometry":{"type":"MultiLineString","coordinates":[[[2.16525,41.38088],[2.16336,41.38075]]]}},{"type":"Feature","properties":{"s":"st-passeig-de-sant-joan"},"geometry":{"type":"MultiLineString","coordinates":[[[2.1805,41.39157],[2.17989,41.39161],[2.17681,41.39392],[2.16528,41.40265]]]}},{"type":"Feature","properties":{"s":"st-carrer-de-sant-nicolau"},"geometry":{"type":"MultiLineString","coordinates":[[[2.14591,41.37799],[2.14493,41.37754],[2.14409,41.37706]]]}},{"type":"Feature","properties":{"s":"st-carrer-de-sant-pau"},"geometry":{"type":"MultiLineString","coordinates":[[[2.16773,41.37496],[2.16858,41.37587],[2.16872,41.37598],[2.1691,41.37639],[2.16932,41.37652]]]}},{"type":"Feature","properties":{"s":"st-passatge-de-sant-pau"},"geometry":{"type":"MultiLineString","coordinates":[[[2.17492,41.41162],[2.17534,41.41131]],[[2.17534,41.41131],[2.17543,41.41124]],[[2.17534,41.41131],[2.17504,41.41108]]]}},{"type":"Feature","properties":{"s":"st-ronda-de-sant-pau"},"geometry":{"type":"MultiLineString","coordinates":[[[2.16773,41.37496],[2.16683,41.37587],[2.16657,41.37605],[2.1661,41.3764],[2.16544,41.3769],[2.16434,41.37777],[2.16314,41.37867]]]}},{"type":"Feature","properties":{"s":"st-placa-de-sant-pere"},"geometry":{"type":"MultiLineString","coordinates":[[[2.17952,41.38916],[2.17917,41.38926]],[[2.17917,41.38926],[2.17897,41.38927],[2.17866,41.38936],[2.17898,41.38979],[2.17917,41.38926]]]}},{"type":"Feature","properties":{"s":"st-ronda-de-sant-pere"},"geometry":{"type":"MultiLineString","coordinates":[[[2.17008,41.38795],[2.1723,41.3888],[2.17384,41.38936]],[[2.17384,41.38936],[2.17536,41.38991],[2.17684,41.3905],[2.17989,41.39161]],[[2.17384,41.38936],[2.17341,41.38969],[2.17215,41.38892]]]}},{"type":"Feature","properties":{"s":"st-carrer-de-sant-vicenc"},"geometry":{"type":"MultiLineString","coordinates":[[[2.16555,41.38045],[2.16469,41.38168],[2.16406,41.38235]]]}},{"type":"Feature","properties":{"s":"st-carrer-de-sancho-de-avila"},"geometry":{"type":"MultiLineString","coordinates":[[[2.1881,41.3973],[2.18699,41.39666]]]}},{"type":"Feature","properties":{"s":"st-carrer-de-santa-anna"},"geometry":{"type":"MultiLineString","coordinates":[[[2.17239,41.38613],[2.17177,41.38554],[2.17067,41.38459]]]}},{"type":"Feature","properties":{"s":"st-carrer-de-santa-eulalia"},"geometry":{"type":"MultiLineString","coordinates":[[[2.1633,41.4005],[2.16449,41.40154]]]}},{"type":"Feature","properties":{"s":"st-placa-de-santa-madrona"},"geometry":{"type":"MultiLineString","coordinates":[[[2.15668,41.37362],[2.1559,41.37361],[2.1559,41.37347],[2.15667,41.37348],[2.15668,41.37362]]]}},{"type":"Feature","properties":{"s":"st-carrer-de-santa-tecla"},"geometry":{"type":"MultiLineString","coordinates":[[[2.1608,41.39763],[2.15993,41.39841]]]}},{"type":"Feature","properties":{"s":"st-carrer-de-santa-teresa"},"geometry":{"type":"MultiLineString","coordinates":[[[2.16039,41.39733],[2.15951,41.39814]]]}},{"type":"Feature","properties":{"s":"st-avinguda-de-sarria"},"geometry":{"type":"MultiLineString","coordinates":[[[2.14827,41.38988],[2.14618,41.39002],[2.14558,41.39021]],[[2.14558,41.39021],[2.14431,41.3904]],[[2.14558,41.39021],[2.14482,41.39077],[2.14431,41.3904]],[[2.14431,41.3904],[2.14148,41.39082]]]}},{"type":"Feature","properties":{"s":"st-cami-vell-de-sarria"},"geometry":{"type":"MultiLineString","coordinates":[[[2.14297,41.38766],[2.14192,41.38791]]]}},{"type":"Feature","properties":{"s":"st-carrer-de-seneca"},"geometry":{"type":"MultiLineString","coordinates":[[[2.1553,41.39625],[2.15716,41.39745],[2.15767,41.39779]]]}},{"type":"Feature","properties":{"s":"st-carrer-de-sepulveda"},"geometry":{"type":"MultiLineString","coordinates":[[[2.16383,41.38417],[2.1632,41.38375],[2.16096,41.38203],[2.15304,41.37608],[2.1519,41.375]]]}},{"type":"Feature","properties":{"s":"st-passatge-de-sert"},"geometry":{"type":"MultiLineString","coordinates":[[[2.17669,41.38921],[2.17711,41.38899]]]}},{"type":"Feature","properties":{"s":"st-carrer-de-sicilia"},"geometry":{"type":"MultiLineString","coordinates":[[[2.17205,41.40264],[2.16753,41.40609],[2.1667,41.40691]],[[2.17317,41.40179],[2.17431,41.40096],[2.17499,41.4004],[2.17826,41.39795],[2.17893,41.39743],[2.18133,41.39563],[2.1819,41.39518],[2.18251,41.39478]]]}},{"type":"Feature","properties":{"s":"st-passatge-de-francesca-simon"},"geometry":{"type":"MultiLineString","coordinates":[[[2.17262,41.40392],[2.17389,41.40491]]]}},{"type":"Feature","properties":{"s":"st-carrer-de-les-sitges"},"geometry":{"type":"MultiLineString","coordinates":[[[2.1695,41.38474],[2.16988,41.38413]]]}},{"type":"Feature","properties":{"s":"st-carrer-dels-tallers"},"geometry":{"type":"MultiLineString","coordinates":[[[2.17059,41.3847],[2.1695,41.38474],[2.16661,41.38494],[2.16469,41.38516],[2.16395,41.38525]]]}},{"type":"Feature","properties":{"s":"st-carrer-de-tamarit"},"geometry":{"type":"MultiLineString","coordinates":[[[2.16331,41.38034],[2.16208,41.37948],[2.15756,41.37607],[2.15643,41.37499]],[[2.15579,41.37499],[2.1546,41.37388]]]}},{"type":"Feature","properties":{"s":"st-carrer-de-tanger"},"geometry":{"type":"MultiLineString","coordinates":[[[2.18692,41.39839],[2.18814,41.39905],[2.18847,41.39929]]]}},{"type":"Feature","properties":{"s":"st-carrer-de-tapioles"},"geometry":{"type":"MultiLineString","coordinates":[[[2.16517,41.37497],[2.16449,41.37369]]]}},{"type":"Feature","properties":{"s":"st-carrer-de-tarragona"},"geometry":{"type":"MultiLineString","coordinates":[[[2.14252,41.38061],[2.14291,41.38025],[2.14591,41.37799],[2.14705,41.37712],[2.14822,41.37625],[2.14919,41.3755]]]}},{"type":"Feature","properties":{"s":"st-carrer-de-terrassa"},"geometry":{"type":"MultiLineString","coordinates":[[[2.16377,41.40027],[2.16327,41.39987]]]}},{"type":"Feature","properties":{"s":"st-passatge-de-tasso"},"geometry":{"type":"MultiLineString","coordinates":[[[2.17364,41.39633],[2.17478,41.39719]]]}},{"type":"Feature","properties":{"s":"st-carrer-de-teodor-bonaplata"},"geometry":{"type":"MultiLineString","coordinates":[[[2.15922,41.37498],[2.159,41.37433]]]}},{"type":"Feature","properties":{"s":"st-placa-de-tetuan"},"geometry":{"type":"MultiLineString","coordinates":[[[2.17681,41.39392],[2.17442,41.39404],[2.1743,41.39582],[2.17668,41.39574],[2.17681,41.39392]]]}},{"type":"Feature","properties":{"s":"st-carrer-del-tigre"},"geometry":{"type":"MultiLineString","coordinates":[[[2.16527,41.38301],[2.16449,41.38257],[2.16354,41.38208]]]}},{"type":"Feature","properties":{"s":"st-passatge-de-torres"},"geometry":{"type":"MultiLineString","coordinates":[[[2.17045,41.40556],[2.17129,41.40619]]]}},{"type":"Feature","properties":{"s":"st-carrer-de-torres-i-amat"},"geometry":{"type":"MultiLineString","coordinates":[[[2.16383,41.38417],[2.16475,41.38441],[2.16517,41.38459]],[[2.16517,41.38459],[2.16521,41.3848]],[[2.16517,41.38459],[2.16547,41.38455],[2.16625,41.38448]]]}},{"type":"Feature","properties":{"s":"st-carrer-de-trafalgar"},"geometry":{"type":"MultiLineString","coordinates":[[[2.17989,41.39104],[2.17846,41.39052],[2.17738,41.39009],[2.17625,41.38924],[2.17588,41.38894],[2.17373,41.38895]]]}},{"type":"Feature","properties":{"s":"st-travessera-de-gracia"},"geometry":{"type":"MultiLineString","coordinates":[[[2.14554,41.393],[2.14571,41.39363],[2.14615,41.39397],[2.14687,41.3944],[2.14868,41.39554]],[[2.17383,41.41155],[2.1727,41.41077],[2.17039,41.40922],[2.16923,41.40847],[2.16779,41.40759],[2.16636,41.40669]]]}},{"type":"Feature","properties":{"s":"st-carrer-de-tuset"},"geometry":{"type":"MultiLineString","coordinates":[[[2.15317,41.39493],[2.15233,41.39566],[2.15151,41.39625]]]}},{"type":"Feature","properties":{"s":"st-placa-de-la-universitat"},"geometry":{"type":"MultiLineString","coordinates":[[[2.1631,41.38555],[2.16414,41.38631],[2.16466,41.3859],[2.16395,41.38525],[2.16392,41.38494],[2.1631,41.38555]]]}},{"type":"Feature","properties":{"s":"st-ronda-de-la-universitat"},"geometry":{"type":"MultiLineString","coordinates":[[[2.16854,41.38739],[2.16627,41.38656],[2.16466,41.3859]]]}},{"type":"Feature","properties":{"s":"st-passatge-d-urena"},"geometry":{"type":"MultiLineString","coordinates":[[[2.17624,41.40972],[2.17669,41.41007]]]}},{"type":"Feature","properties":{"s":"st-carrer-del-comte-d-urgell"},"geometry":{"type":"MultiLineString","coordinates":[[[2.16314,41.37867],[2.16208,41.37948],[2.15981,41.38117],[2.15856,41.38213],[2.15506,41.38477],[2.15395,41.38562],[2.15167,41.38732],[2.1494,41.38906],[2.14827,41.38988],[2.14715,41.39075],[2.14489,41.39245]]]}},{"type":"Feature","properties":{"s":"st-passatge-d-utset"},"geometry":{"type":"MultiLineString","coordinates":[[[2.17788,41.40436],[2.17723,41.40485]]]}},{"type":"Feature","properties":{"s":"st-carrer-de-valencia"},"geometry":{"type":"MultiLineString","coordinates":[[[2.14483,41.37881],[2.14603,41.37967],[2.15055,41.38308],[2.15153,41.38403]],[[2.1528,41.38479],[2.15395,41.38562],[2.1596,41.38989],[2.16075,41.39074],[2.1638,41.39303],[2.16826,41.39641],[2.16864,41.39671],[2.17204,41.39925],[2.17258,41.39969]],[[2.17317,41.40009],[2.17496,41.40144],[2.17544,41.40178],[2.17671,41.40275],[2.17783,41.40357],[2.17889,41.40439],[2.18087,41.40585],[2.18341,41.40778]]]}},{"type":"Feature","properties":{"s":"st-carrer-de-valldonzella"},"geometry":{"type":"MultiLineString","coordinates":[[[2.16661,41.38494],[2.16625,41.38448],[2.16516,41.3835],[2.16427,41.3828],[2.16357,41.38232]]]}},{"type":"Feature","properties":{"s":"st-carrer-de-vallhonrat"},"geometry":{"type":"MultiLineString","coordinates":[[[2.15759,41.37498],[2.15694,41.37398],[2.15668,41.37362]]]}},{"type":"Feature","properties":{"s":"st-carrer-de-venus"},"geometry":{"type":"MultiLineString","coordinates":[[[2.16294,41.39926],[2.16249,41.39949],[2.16168,41.40002]]]}},{"type":"Feature","properties":{"s":"st-carrer-de-bergara"},"geometry":{"type":"MultiLineString","coordinates":[[[2.16938,41.38661],[2.16771,41.38567]]]}},{"type":"Feature","properties":{"s":"st-placa-de-vicenc-martorell"},"geometry":{"type":"MultiLineString","coordinates":[[[2.16915,41.3839],[2.16864,41.38426],[2.16945,41.38408],[2.16915,41.3839]]]}},{"type":"Feature","properties":{"s":"st-passeig-de-lluis-companys"},"geometry":{"type":"MultiLineString","coordinates":[[[2.18273,41.39007],[2.18164,41.39088],[2.1805,41.39157],[2.17989,41.39161],[2.17989,41.39104],[2.18043,41.3906],[2.18138,41.38989]]]}},{"type":"Feature","properties":{"s":"st-carrer-de-la-victoria"},"geometry":{"type":"MultiLineString","coordinates":[[[2.17847,41.38874],[2.17798,41.38909]]]}},{"type":"Feature","properties":{"s":"st-carrer-de-vila-i-vila"},"geometry":{"type":"MultiLineString","coordinates":[[[2.16944,41.37401],[2.16744,41.37459],[2.16676,41.37495]]]}},{"type":"Feature","properties":{"s":"st-carrer-de-viladomat"},"geometry":{"type":"MultiLineString","coordinates":[[[2.1632,41.37497],[2.16208,41.37607],[2.14353,41.39007]]]}},{"type":"Feature","properties":{"s":"st-carrer-de-vilamari"},"geometry":{"type":"MultiLineString","coordinates":[[[2.15417,41.375],[2.15351,41.37573],[2.14491,41.38222]]]}},{"type":"Feature","properties":{"s":"st-avinguda-de-vilanova"},"geometry":{"type":"MultiLineString","coordinates":[[[2.1805,41.39157],[2.18133,41.39221],[2.18235,41.39297]]]}},{"type":"Feature","properties":{"s":"st-passatge-de-vilaret"},"geometry":{"type":"MultiLineString","coordinates":[[[2.17797,41.40708],[2.17942,41.40648],[2.18087,41.40585]]]}},{"type":"Feature","properties":{"s":"st-carrer-de-villarroel"},"geometry":{"type":"MultiLineString","coordinates":[[[2.16331,41.38034],[2.16208,41.38119],[2.16096,41.38203],[2.15733,41.38478],[2.15281,41.38818],[2.14943,41.39076],[2.14621,41.39317]]]}},{"type":"Feature","properties":{"s":"st-passatge-de-vintro"},"geometry":{"type":"MultiLineString","coordinates":[[[2.18507,41.40731],[2.1862,41.40646]]]}},{"type":"Feature","properties":{"s":"st-carrer-de-la-verge"},"geometry":{"type":"MultiLineString","coordinates":[[[2.16457,41.38378],[2.16516,41.3835]]]}},{"type":"Feature","properties":{"s":"st-carrer-de-viriat"},"geometry":{"type":"MultiLineString","coordinates":[[[2.14252,41.38061],[2.14111,41.38047]],[[2.14074,41.38048],[2.14111,41.38047]],[[2.14026,41.38013],[2.14072,41.38032],[2.14111,41.38047]]]}},{"type":"Feature","properties":{"s":"st-carrer-de-wellington"},"geometry":{"type":"MultiLineString","coordinates":[[[2.18466,41.39313],[2.18574,41.39231]]]}},{"type":"Feature","properties":{"s":"st-carrer-de-zamora"},"geometry":{"type":"MultiLineString","coordinates":[[[2.18694,41.39814],[2.1881,41.3973],[2.18917,41.39647]]]}},{"type":"Feature","properties":{"s":"st-placa-de-les-heroines-de-girona"},"geometry":{"type":"MultiLineString","coordinates":[[[2.1801,41.41028],[2.17969,41.41061],[2.17933,41.41002],[2.17915,41.40967],[2.1801,41.41028]]]}},{"type":"Feature","properties":{"s":"st-placa-del-gall"},"geometry":{"type":"MultiLineString","coordinates":[[[2.15584,41.38591],[2.15621,41.38563],[2.15677,41.38606],[2.15734,41.38647],[2.15584,41.38591]]]}},{"type":"Feature","properties":{"s":"st-placa-dels-paisos-catalans"},"geometry":{"type":"MultiLineString","coordinates":[[[2.14181,41.37924],[2.14072,41.38032]],[[2.14174,41.37913],[2.14026,41.38013]]]}},{"type":"Feature","properties":{"s":"st-placa-dels-ocellets"},"geometry":{"type":"MultiLineString","coordinates":[[[2.16206,41.37497],[2.16202,41.37463]]]}},{"type":"Feature","properties":{"s":"st-placa-d-andre-malraux"},"geometry":{"type":"MultiLineString","coordinates":[[[2.18235,41.39297],[2.18194,41.39292]]]}},{"type":"Feature","properties":{"s":"st-placa-de-les-arts"},"geometry":{"type":"MultiLineString","coordinates":[[[2.18695,41.39989],[2.18593,41.39911]]]}},{"type":"Feature","properties":{"s":"st-placa-de-joan-coromines"},"geometry":{"type":"MultiLineString","coordinates":[[[2.16563,41.38391],[2.16614,41.3835]]]}},{"type":"Feature","properties":{"s":"st-placa-d-henry-dunant"},"geometry":{"type":"MultiLineString","coordinates":[[[2.17648,41.41039],[2.17714,41.40989]]]}},{"type":"Feature","properties":{"s":"st-placa-de-fort-pienc"},"geometry":{"type":"MultiLineString","coordinates":[[[2.18221,41.39627],[2.1819,41.39518]]]}},{"type":"Feature","properties":{"s":"st-placa-de-la-bella-dorita"},"geometry":{"type":"MultiLineString","coordinates":[[[2.16744,41.37459],[2.16752,41.3747]]]}},{"type":"Feature","properties":{"s":"st-placeta-de-miquel-palles"},"geometry":{"type":"MultiLineString","coordinates":[[[2.1673,41.37751],[2.16729,41.37738]]]}}]}